{"features":[{"geometry":{"coordinates":[[[-86.8678719,35.9105077],[-86.8663484,35.9104643],[-86.865871,35.9109162],[-86.8655598,35.9119241],[-86.8654472,35.9130364],[-86.8665361,35.9130755],[-86.8665858,35.9124292],[-86.8677431,35.9124846],[-86.8678719,35.9105077]]],"type":"Polygon"},"id":"645347a0-089d-3a4f-8ae2-32c97f5a2678","properties":{"class":"industrial","id":"645347a0-089d-3a4f-8ae2-32c97f5a2678","source_tags":[["landuse","industrial"]],"sources":[{"dataset":"OpenStreetMap","license":"ODbL-1.0","property":"","provider":"osm","record_id":"w819981909@1","resource":"planet","update_time":"2020-06-26T21:58:50.000Z","version":"2026-09-06T00:00:00.000Z"}],"subtype":"developed","version":1},"type":"Feature"},{"geometry":{"coordinates":[[[-86.8564858,35.9089353],[-86.8569025,35.9090271],[-86.8571192,35.9090748],[-86.8582092,35.9094641],[-86.8585052,35.9096022],[-86.8587781,35.9097495],[-86.8590628,35.9099385],[-86.8594029,35.9101979],[-86.859764,35.910547],[-86.8600657,35.9108042],[-86.860164,35.910888],[-86.8619193,35.9123236],[-86.8621556,35.9121823],[-86.8625918,35.9119168],[-86.8626343,35.9116151],[-86.8627121,35.9107525],[-86.8627734,35.9101777],[-86.8629125,35.9098474],[-86.862962,35.9095246],[-86.8629876,35.9089897],[-86.8630721,35.9082282],[-86.8636773,35.9082716],[-86.863688,35.9081255],[-86.8637179,35.9077161],[-86.8637718,35.9074083],[-86.8637722,35.9074021],[-86.8638252,35.9065123],[-86.8638193,35.9064224],[-86.8638148,35.9063537],[-86.8638092,35.9062689],[-86.8636494,35.9060101],[-86.863438,35.9057348],[-86.8633572,35.9056245],[-86.8629852,35.9051165],[-86.8628439,35.9049652],[-86.862747,35.9048738],[-86.8627067,35.9048009],[-86.8626925,35.9047753],[-86.8626772,35.9046865],[-86.8625209,35.9047014],[-86.8618162,35.9046181],[-86.8617727,35.9048247],[-86.8592241,35.9044723],[-86.8592677,35.9042656],[-86.8583593,35.9041551],[-86.8583381,35.9041565],[-86.8577788,35.9041862],[-86.8562646,35.9038704],[-86.8561495,35.9048291],[-86.8560483,35.9060286],[-86.8555728,35.9059792],[-86.8555586,35.9063698],[-86.8554232,35.9071098],[-86.8553844,35.9081928],[-86.8554199,35.9086363],[-86.8565082,35.9088724],[-86.8564858,35.9089353]]],"type":"Polygon"},"id":"50f06f52-1818-37b5-b6c0-ef6f5162aa25","properties":{"class":"park","id":"50f06f52-1818-37b5-b6c0-ef6f5162aa25","names":{"primary":"Eastern Flank Battle Field Park"},"source_tags":[["boundary","protected_area"],["heritage","2"],["heritage:operator","nrhp"],["leisure","park"],["nrhp:criteria","A"],["nrhp:inscription_date","10/15/1966"],["nrhp:nhl","yes"],["protection_title","protected_site"],["ref:nrhp","66000734"],["wikipedia","en:Franklin Battlefield"]],"sources":[{"dataset":"OpenStreetMap","license":"ODbL-1.0","property":"","provider":"osm","record_id":"w544667981@11","resource":"planet","update_time":"2026-08-21T23:22:40.000Z","version":"2026-09-06T00:00:00.000Z"}],"subtype":"park","version":1,"wikidata":"Q5491303"},"type":"Feature"},{"geometry":{"coordinates":[[[-86.8570295,35.9241596],[-86.8545692,35.9238138],[-86.854345,35.9248598],[-86.8568055,35.9252055],[-86.8570295,35.9241596]]],"type":"Polygon"},"id":"ebfc0a3c-93b0-3dd9-b853-e3e68648abe0","properties":{"class":"industrial","id":"ebfc0a3c-93b0-3dd9-b853-e3e68648abe0","names":{"primary":"TierPoint"},"source_tags":[["landuse","industrial"],["telecom","data_center"],["website","https://www.tierpoint.com/data-centers/tennessee/nashville/"]],"sources":[{"dataset":"OpenStreetMap","license":"ODbL-1.0","property":"","provider":"osm","record_id":"w819981908@2","resource":"planet","update_time":"2023-09-24T07:11:43.000Z","version":"2026-09-06T00:00:00.000Z"}],"subtype":"developed","version":1},"type":"Feature"},{"geometry":{"coordinates":[[[-86.8592655,35.926609],[-86.8618404,35.9270868],[-86.8623554,35.9264353],[-86.8637179,35.9239592],[-86.8627202,35.9236985],[-86.8615372,35.9233977],[-86.8609364,35.9232934],[-86.8604214,35.9231371],[-86.859842,35.9226505],[-86.8591796,35.9248714],[-86.8595552,35.9255317],[-86.8592655,35.926609]]],"type":"Polygon"},"id":"18eea41b-c3cd-36b7-ab27-593a3be55ac1","properties":{"class":"park","id":"18eea41b-c3cd-36b7-ab27-593a3be55ac1","names":{"primary":"Fort Granger"},"source_tags":[["leisure","park"]],"sources":[{"dataset":"OpenStreetMap","license":"ODbL-1.0","property":"","provider":"osm","record_id":"w85845976@2","resource":"planet","update_time":"2017-09-27T07:12:03.000Z","version":"2026-09-06T00:00:00.000Z"}],"subtype":"park","version":1,"wikidata":"Q5471240"},"type":"Feature"},{"geometry":{"coordinates":[[[-86.862036,35.9207292],[-86.861951,35.9206884],[-86.8618996,35.9207532],[-86.861781,35.9207661],[-86.8617256,35.9207845],[-86.8617187,35.9208061],[-86.8616693,35.9208157],[-86.8615862,35.9209478],[-86.8614874,35.9209998],[-86.8614815,35.9210126],[-86.8614864,35.921027],[-86.8615744,35.9211183],[-86.861605,35.9211231],[-86.861695,35.9210751],[-86.8617227,35.9210999],[-86.8617415,35.9211039],[-86.8618502,35.9210839],[-86.861866,35.9210647],[-86.8618818,35.9210735],[-86.8619026,35.9210382],[-86.8619204,35.9210463],[-86.8619461,35.9210102],[-86.8619708,35.9210086],[-86.8619965,35.9209694],[-86.8619955,35.9209542],[-86.8620084,35.920943],[-86.8620064,35.9209166],[-86.8619846,35.9209102],[-86.8619866,35.9208933],[-86.8620034,35.9208925],[-86.8620143,35.9208837],[-86.8620014,35.9208485],[-86.8620123,35.9208397],[-86.8619965,35.9207965],[-86.862036,35.9207292]]],"type":"Polygon"},"id":"3350c507-afe5-37e7-9ffc-5a973f7efdc6","properties":{"class":"playground","id":"3350c507-afe5-37e7-9ffc-5a973f7efdc6","source_tags":[["leisure","playground"]],"sources":[{"dataset":"OpenStreetMap","license":"ODbL-1.0","property":"","provider":"osm","record_id":"w488747922@1","resource":"planet","update_time":"2017-04-22T20:17:27.000Z","version":"2026-09-06T00:00:00.000Z"}],"subtype":"recreation","version":1},"type":"Feature"},{"geometry":{"coordinates":[[[-86.86175,35.9214385],[-86.861774,35.9214225],[-86.8617848,35.9214104],[-86.8617824,35.9213938],[-86.8617926,35.9213724],[-86.8617416,35.9213574],[-86.8617236,35.9213627],[-86.8617104,35.921371],[-86.8616912,35.9214118],[-86.8616984,35.9214244],[-86.86175,35.9214385]]],"type":"Polygon"},"id":"e812aa53-fabf-32a9-9abf-f9e9e13adc68","properties":{"class":"playground","id":"e812aa53-fabf-32a9-9abf-f9e9e13adc68","source_tags":[["leisure","playground"]],"sources":[{"dataset":"OpenStreetMap","license":"ODbL-1.0","property":"","provider":"osm","record_id":"w488747921@1","resource":"planet","update_time":"2017-04-22T20:17:27.000Z","version":"2026-09-06T00:00:00.000Z"}],"subtype":"recreation","version":1},"type":"Feature"},{"geometry":{"coordinates":[[[-86.861702,35.9215795],[-86.861741,35.9215183],[-86.8616437,35.9214833],[-86.8616035,35.921546],[-86.861702,35.9215795]]],"type":"Polygon"},"id":"100e49be-878b-30db-a10a-fa1f2e267825","properties":{"class":"playground","id":"100e49be-878b-30db-a10a-fa1f2e267825","source_tags":[["leisure","playground"]],"sources":[{"dataset":"OpenStreetMap","license":"ODbL-1.0","property":"","provider":"osm","record_id":"w488747920@1","resource":"planet","update_time":"2017-04-22T20:17:27.000Z","version":"2026-09-06T00:00:00.000Z"}],"subtype":"recreation","version":1},"type":"Feature"},{"geometry":{"coordinates":[[[-86.861837,35.9215542],[-86.861852,35.9215328],[-86.86184,35.9215119],[-86.8618046,35.9215085],[-86.8617896,35.921527],[-86.8617956,35.9215474],[-86.8618148,35.9215566],[-86.861837,35.9215542]]],"type":"Polygon"},"id":"ec76debe-dc0a-3671-820d-e47b11c6a5bc","properties":{"class":"playground","id":"ec76debe-dc0a-3671-820d-e47b11c6a5bc","source_tags":[["leisure","playground"]],"sources":[{"dataset":"OpenStreetMap","license":"ODbL-1.0","property":"","provider":"osm","record_id":"w488747919@1","resource":"planet","update_time":"2017-04-22T20:17:27.000Z","version":"2026-09-06T00:00:00.000Z"}],"subtype":"recreation","version":1},"type":"Feature"},{"geometry":{"coordinates":[[[-86.8620371,35.9215061],[-86.8620606,35.9214765],[-86.8620281,35.9214585],[-86.8620035,35.9214881],[-86.8620371,35.9215061]]],"type":"Polygon"},"id":"0c3751d0-d49b-3ee8-917a-e62a2eb73870","properties":{"class":"playground","id":"0c3751d0-d49b-3ee8-917a-e62a2eb73870","source_tags":[["leisure","playground"]],"sources":[{"dataset":"OpenStreetMap","license":"ODbL-1.0","property":"","provider":"osm","record_id":"w488747917@1","resource":"planet","update_time":"2017-04-22T20:17:27.000Z","version":"2026-09-06T00:00:00.000Z"}],"subtype":"recreation","version":1},"type":"Feature"},{"geometry":{"coordinates":[[[-86.8620822,35.9216111],[-86.8621194,35.9215707],[-86.8620293,35.9215192],[-86.8619909,35.9215596],[-86.8620822,35.9216111]]],"type":"Polygon"},"id":"d96690d8-5a96-3804-a338-bca1f132961e","properties":{"class":"playground","id":"d96690d8-5a96-3804-a338-bca1f132961e","source_tags":[["leisure","playground"]],"sources":[{"dataset":"OpenStreetMap","license":"ODbL-1.0","property":"","provider":"osm","record_id":"w488747916@1","resource":"planet","update_time":"2017-04-22T20:17:27.000Z","version":"2026-09-06T00:00:00.000Z"}],"subtype":"recreation","version":1},"type":"Feature"},{"geometry":{"coordinates":[[[-86.862046,35.9212985],[-86.8619906,35.921361],[-86.8619926,35.921369],[-86.8620025,35.921381],[-86.8620223,35.9213986],[-86.862129,35.9214634],[-86.8621409,35.9214875],[-86.8621577,35.9215267],[-86.8621785,35.9215515],[-86.8622417,35.9215819],[-86.8622734,35.9215787],[-86.8622813,35.9215675],[-86.8622833,35.9215547],[-86.8622833,35.9215299],[-86.862305,35.9214939],[-86.862309,35.9214746],[-86.862307,35.9214594],[-86.862046,35.9212985]]],"type":"Polygon"},"id":"18c98b53-93dd-3d13-9efc-72f4d500d631","properties":{"class":"playground","id":"18c98b53-93dd-3d13-9efc-72f4d500d631","source_tags":[["leisure","playground"]],"sources":[{"dataset":"OpenStreetMap","license":"ODbL-1.0","property":"","provider":"osm","record_id":"w488747914@1","resource":"planet","update_time":"2017-04-22T20:17:27.000Z","version":"2026-09-06T00:00:00.000Z"}],"subtype":"recreation","version":1},"type":"Feature"},{"geometry":{"coordinates":[[[-86.8620023,35.9213953],[-86.8619987,35.9213846],[-86.8619885,35.9213724],[-86.8619639,35.9213632],[-86.8619471,35.9213666],[-86.8618997,35.9214342],[-86.8619081,35.9214522],[-86.8619273,35.9214619],[-86.8619477,35.9214624],[-86.8620023,35.9213953]]],"type":"Polygon"},"id":"4f4bad4f-bb4b-3e1b-89e5-f213095ca73c","properties":{"class":"playground","id":"4f4bad4f-bb4b-3e1b-89e5-f213095ca73c","source_tags":[["leisure","playground"]],"sources":[{"dataset":"OpenStreetMap","license":"ODbL-1.0","property":"","provider":"osm","record_id":"w488747918@1","resource":"planet","update_time":"2017-04-22T20:17:27.000Z","version":"2026-09-06T00:00:00.000Z"}],"subtype":"recreation","version":1},"type":"Feature"},{"geometry":{"coordinates":[[[-86.8630178,35.9195922],[-86.8626612,35.9202409],[-86.8625457,35.9202699],[-86.8622141,35.920182],[-86.8620865,35.9201595],[-86.8620092,35.9202177],[-86.8618134,35.9205349],[-86.8604009,35.9200435],[-86.8603032,35.9200619],[-86.8602535,35.920124],[-86.859842,35.9226505],[-86.8604214,35.9231371],[-86.8609364,35.9232934],[-86.8615372,35.9233977],[-86.8637072,35.9239765],[-86.865185,35.9207391],[-86.8643052,35.9201482],[-86.8635079,35.9198039],[-86.8632561,35.9196952],[-86.8630178,35.9195922]]],"type":"Polygon"},"id":"3c4ddb30-71f3-301c-a156-ba49613985c7","properties":{"class":"park","id":"3c4ddb30-71f3-301c-a156-ba49613985c7","names":{"primary":"Pinkerton Park"},"source_tags":[["addr:city","Franklin"],["addr:postcode","37064"],["addr:street","Murfreesburo Road"],["leisure","park"]],"sources":[{"dataset":"OpenStreetMap","license":"ODbL-1.0","property":"","provider":"osm","record_id":"w85730450@5","resource":"planet","update_time":"2025-10-23T20:01:30.000Z","version":"2026-09-06T00:00:00.000Z"}],"subtype":"park","version":1,"wikidata":"Q55075426"},"type":"Feature"},{"geometry":{"coordinates":[[[-86.8621864,35.9217172],[-86.8622447,35.9216356],[-86.8621864,35.9216035],[-86.8621241,35.9216868],[-86.8621864,35.9217172]]],"type":"Polygon"},"id":"bb4a989d-898c-359d-ac75-266ab7b7720a","properties":{"class":"playground","id":"bb4a989d-898c-359d-ac75-266ab7b7720a","source_tags":[["leisure","playground"]],"sources":[{"dataset":"OpenStreetMap","license":"ODbL-1.0","property":"","provider":"osm","record_id":"w488747915@1","resource":"planet","update_time":"2017-04-22T20:17:27.000Z","version":"2026-09-06T00:00:00.000Z"}],"subtype":"recreation","version":1},"type":"Feature"},{"geometry":{"coordinates":[[[-86.867532,35.9149489],[-86.8675696,35.9142147],[-86.8654346,35.9138671],[-86.8653916,35.914584],[-86.867532,35.9149489]]],"type":"Polygon"},"id":"a506d612-91a9-3633-b027-ae7de86942cb","properties":{"class":"park","id":"a506d612-91a9-3633-b027-ae7de86942cb","names":{"primary":"Collins Farm Historic Park"},"source_tags":[["leisure","park"]],"sources":[{"dataset":"OpenStreetMap","license":"ODbL-1.0","property":"","provider":"osm","record_id":"w549974580@1","resource":"planet","update_time":"2017-12-30T20:24:35.000Z","version":"2026-09-06T00:00:00.000Z"}],"subtype":"park","version":1},"type":"Feature"},{"geometry":{"coordinates":[[[-86.8755969,35.914265],[-86.8756238,35.9140968],[-86.8754986,35.9140837],[-86.8754717,35.9142519],[-86.8755969,35.914265]]],"type":"Polygon"},"id":"3d2da811-bb89-33fc-b0fe-d513ba826370","properties":{"class":"pitch","id":"3d2da811-bb89-33fc-b0fe-d513ba826370","source_tags":[["leisure","pitch"],["sport","tennis"]],"sources":[{"dataset":"OpenStreetMap","license":"ODbL-1.0","property":"","provider":"osm","record_id":"w1271281937@1","resource":"planet","update_time":"2024-04-09T20:55:07.000Z","version":"2026-09-06T00:00:00.000Z"}],"subtype":"recreation","version":1},"type":"Feature"},{"geometry":{"coordinates":[[[-86.8761544,35.9141117],[-86.8761441,35.9141875],[-86.8762046,35.9141929],[-86.8761876,35.9143184],[-86.8762621,35.9143251],[-86.8763534,35.9143699],[-86.8763651,35.9145212],[-86.8766515,35.9145068],[-86.8768894,35.9145388],[-86.8769217,35.9143813],[-86.8768214,35.9143679],[-86.876886,35.9140461],[-86.8768664,35.914039],[-86.8768757,35.9139797],[-86.8768191,35.9139739],[-86.876878,35.9135975],[-86.8768599,35.9135523],[-86.8756572,35.9134451],[-86.8756372,35.9135926],[-86.8755706,35.9135866],[-86.8755071,35.9140541],[-86.8761544,35.9141117]]],"type":"Polygon"},"id":"9cb7dbbf-5353-35df-84d6-46210a9dfa72","properties":{"class":"grass","id":"9cb7dbbf-5353-35df-84d6-46210a9dfa72","source_tags":[["landuse","grass"]],"sources":[{"dataset":"OpenStreetMap","license":"ODbL-1.0","property":"","provider":"osm","record_id":"w1271281945@1","resource":"planet","update_time":"2024-04-09T20:55:07.000Z","version":"2026-09-06T00:00:00.000Z"}],"subtype":"managed","version":1},"type":"Feature"},{"geometry":{"coordinates":[[[-86.8765362,35.9143796],[-86.8765702,35.9143762],[-86.8766063,35.9143872],[-86.8766835,35.9143556],[-86.8766949,35.9143443],[-86.8766902,35.9142761],[-86.8766599,35.9142539],[-86.8766237,35.9142496],[-86.8765014,35.9142654],[-86.8764665,35.9142468],[-86.8763221,35.9142316],[-86.8762944,35.9142507],[-86.8762838,35.914305],[-86.8763039,35.9143325],[-86.8764257,35.914348],[-86.8764717,35.9143794],[-86.8764907,35.9143799],[-86.8765113,35.9143736],[-86.8765362,35.9143796]]],"type":"Polygon"},"id":"b646412f-2986-3821-909d-9a0e3567e6e2","properties":{"class":"playground","id":"b646412f-2986-3821-909d-9a0e3567e6e2","source_tags":[["leisure","playground"]],"sources":[{"dataset":"OpenStreetMap","license":"ODbL-1.0","property":"","provider":"osm","record_id":"w1271281941@1","resource":"planet","update_time":"2024-04-09T20:55:07.000Z","version":"2026-09-06T00:00:00.000Z"}],"subtype":"recreation","version":1},"type":"Feature"},{"geometry":{"coordinates":[[[-86.8760984,35.914318],[-86.8761256,35.914147],[-86.875996,35.9141335],[-86.8759689,35.9143045],[-86.8760984,35.914318]]],"type":"Polygon"},"id":"f34e10c0-bc56-3ac0-8912-28de80169d5e","properties":{"class":"pitch","id":"f34e10c0-bc56-3ac0-8912-28de80169d5e","source_tags":[["leisure","pitch"],["sport","tennis"]],"sources":[{"dataset":"OpenStreetMap","license":"ODbL-1.0","property":"","provider":"osm","record_id":"w1271281940@1","resource":"planet","update_time":"2024-04-09T20:55:07.000Z","version":"2026-09-06T00:00:00.000Z"}],"subtype":"recreation","version":1},"type":"Feature"},{"geometry":{"coordinates":[[[-86.8759274,35.9143008],[-86.8759553,35.914131],[-86.8758293,35.9141175],[-86.8758015,35.9142872],[-86.8759274,35.9143008]]],"type":"Polygon"},"id":"6de46138-2ef9-3cfc-8c10-35a4b5e8652e","properties":{"class":"pitch","id":"6de46138-2ef9-3cfc-8c10-35a4b5e8652e","source_tags":[["leisure","pitch"],["sport","tennis"]],"sources":[{"dataset":"OpenStreetMap","license":"ODbL-1.0","property":"","provider":"osm","record_id":"w1271281939@1","resource":"planet","update_time":"2024-04-09T20:55:07.000Z","version":"2026-09-06T00:00:00.000Z"}],"subtype":"recreation","version":1},"type":"Feature"},{"geometry":{"coordinates":[[[-86.8757651,35.9142824],[-86.8757904,35.9141095],[-86.8756567,35.9140967],[-86.8756314,35.9142695],[-86.8757651,35.9142824]]],"type":"Polygon"},"id":"a060fa0b-ad8a-3c42-a1e3-33c073b1e3ea","properties":{"class":"pitch","id":"a060fa0b-ad8a-3c42-a1e3-33c073b1e3ea","source_tags":[["leisure","pitch"],["sport","tennis"]],"sources":[{"dataset":"OpenStreetMap","license":"ODbL-1.0","property":"","provider":"osm","record_id":"w1271281938@1","resource":"planet","update_time":"2024-04-09T20:55:07.000Z","version":"2026-09-06T00:00:00.000Z"}],"subtype":"recreation","version":1},"type":"Feature"},{"geometry":{"coordinates":[[[-86.8759366,35.9169553],[-86.8758288,35.9168332],[-86.8757826,35.9168299],[-86.8757734,35.9168407],[-86.8757635,35.9168605],[-86.8757535,35.9168805],[-86.8757513,35.9168998],[-86.8757663,35.916931],[-86.8758691,35.9170199],[-86.8758881,35.9170162],[-86.8759261,35.9170562],[-86.8759756,35.9170254],[-86.8759362,35.9169838],[-86.8759366,35.9169553]]],"type":"Polygon"},"id":"10ce0b6d-0fd4-304c-926e-0023de99b4ba","properties":{"class":"playground","id":"10ce0b6d-0fd4-304c-926e-0023de99b4ba","source_tags":[["leisure","playground"]],"sources":[{"dataset":"OpenStreetMap","license":"ODbL-1.0","property":"","provider":"osm","record_id":"w1271343121@1","resource":"planet","update_time":"2024-04-10T02:39:21.000Z","version":"2026-09-06T00:00:00.000Z"}],"subtype":"recreation","version":1},"type":"Feature"},{"geometry":{"coordinates":[[[-86.8741365,35.9182483],[-86.8745084,35.9181842],[-86.8746695,35.9181065],[-86.8750958,35.9176186],[-86.8755064,35.9173256],[-86.875732,35.9172829],[-86.8757635,35.9168605],[-86.8757961,35.9164318],[-86.8735432,35.9163203],[-86.8734799,35.9163452],[-86.8731192,35.9180257],[-86.8731428,35.9180911],[-86.8741365,35.9182483]]],"type":"Polygon"},"id":"098a99e8-2119-33cf-a36d-bd78ac23404e","properties":{"class":"grass","id":"098a99e8-2119-33cf-a36d-bd78ac23404e","source_tags":[["landuse","grass"]],"sources":[{"dataset":"OpenStreetMap","license":"ODbL-1.0","property":"","provider":"osm","record_id":"w1270961553@2","resource":"planet","update_time":"2024-04-10T02:39:21.000Z","version":"2026-09-06T00:00:00.000Z"}],"subtype":"managed","version":1},"type":"Feature"},{"geometry":{"coordinates":[[[-86.8721397,35.9212947],[-86.8724939,35.9199044],[-86.8725845,35.9195113],[-86.8727255,35.9189129],[-86.8727877,35.918611],[-86.8728709,35.9182009],[-86.872333,35.9181147],[-86.8722568,35.9185282],[-86.8721266,35.9191469],[-86.8720125,35.9194582],[-86.8717812,35.9204839],[-86.8716517,35.9212231],[-86.8721397,35.9212947]]],"type":"Polygon"},"id":"7e3f417b-0f6c-3eaf-9968-2474c216699a","properties":{"class":"commercial","id":"7e3f417b-0f6c-3eaf-9968-2474c216699a","source_tags":[["landuse","commercial"]],"sources":[{"dataset":"OpenStreetMap","license":"ODbL-1.0","property":"","provider":"osm","record_id":"w1102629611@1","resource":"planet","update_time":"2022-10-10T14:41:23.000Z","version":"2026-09-06T00:00:00.000Z"}],"subtype":"developed","version":1},"type":"Feature"},{"geometry":{"coordinates":[[[-86.8690881,35.9251002],[-86.8690382,35.9250678],[-86.868978,35.9250504],[-86.8689141,35.9250498],[-86.8688534,35.9250663],[-86.8688027,35.9250978],[-86.8687679,35.9251404],[-86.8687519,35.9251899],[-86.8687565,35.9252409],[-86.8687812,35.925288],[-86.8688233,35.9253261],[-86.8688784,35.9253512],[-86.8689405,35.9253605],[-86.869003,35.925353],[-86.8690592,35.9253296],[-86.869103,35.9252928],[-86.86913,35.9252459],[-86.8691367,35.9251944],[-86.8691221,35.925144],[-86.8690881,35.9251002]]],"type":"Polygon"},"id":"55759cf9-a24c-36fb-bd16-8eca14d60dad","properties":{"class":"park","id":"55759cf9-a24c-36fb-bd16-8eca14d60dad","names":{"primary":"The Square"},"source_tags":[["leisure","park"]],"sources":[{"dataset":"OpenStreetMap","license":"ODbL-1.0","property":"","provider":"osm","record_id":"w1370966338@2","resource":"planet","update_time":"2026-03-28T17:06:38.000Z","version":"2026-09-06T00:00:00.000Z"}],"subtype":"park","version":1},"type":"Feature"},{"geometry":{"coordinates":[[[-86.8703988,35.9245904],[-86.8705957,35.9248622],[-86.8708055,35.9247625],[-86.871241,35.9244837],[-86.8717575,35.9242289],[-86.87163,35.9240386],[-86.8715865,35.9240238],[-86.8703988,35.9245904]]],"type":"Polygon"},"id":"040d9dbf-20a7-3bc4-adc2-e2486374b7ee","properties":{"class":"retail","id":"040d9dbf-20a7-3bc4-adc2-e2486374b7ee","source_tags":[["landuse","retail"]],"sources":[{"dataset":"OpenStreetMap","license":"ODbL-1.0","property":"","provider":"osm","record_id":"w1102625111@1","resource":"planet","update_time":"2022-10-10T14:20:41.000Z","version":"2026-09-06T00:00:00.000Z"}],"subtype":"developed","version":1},"type":"Feature"},{"geometry":{"coordinates":[[[-86.8723382,35.9232466],[-86.8721622,35.9233421],[-86.8719438,35.9230778],[-86.8717811,35.9237077],[-86.8718216,35.9237167],[-86.8724697,35.9234158],[-86.8723382,35.9232466]]],"type":"Polygon"},"id":"836d8452-9d06-3910-8861-38692f5626d7","properties":{"class":"park","id":"836d8452-9d06-3910-8861-38692f5626d7","source_tags":[["leisure","park"]],"sources":[{"dataset":"OpenStreetMap","license":"ODbL-1.0","property":"","provider":"osm","record_id":"w1114739597@1","resource":"planet","update_time":"2022-11-16T22:23:53.000Z","version":"2026-09-06T00:00:00.000Z"}],"subtype":"park","version":1},"type":"Feature"},{"geometry":{"coordinates":[[[-86.8804896,35.9245633],[-86.880523,35.9244885],[-86.880567,35.9244744],[-86.880644,35.9244008],[-86.8806512,35.9243498],[-86.8806337,35.924324],[-86.8800091,35.9241683],[-86.8798752,35.9241641],[-86.8798185,35.9241778],[-86.8798143,35.9241929],[-86.8800124,35.9250273],[-86.8800728,35.9250179],[-86.8799656,35.9245659],[-86.8799106,35.9245599],[-86.8799162,35.9245263],[-86.8800238,35.9243649],[-86.880099,35.9243978],[-86.8801223,35.9243828],[-86.8802226,35.9244851],[-86.8804896,35.9245633]]],"type":"Polygon"},"id":"bd7dfc5e-67ad-3372-a854-3a883f952d13","properties":{"class":"grass","id":"bd7dfc5e-67ad-3372-a854-3a883f952d13","source_tags":[["landuse","grass"]],"sources":[{"dataset":"OpenStreetMap","license":"ODbL-1.0","property":"","provider":"osm","record_id":"w1271275355@1","resource":"planet","update_time":"2024-04-09T20:16:10.000Z","version":"2026-09-06T00:00:00.000Z"}],"subtype":"managed","version":1},"type":"Feature"},{"geometry":{"coordinates":[[[-86.8947042,35.9230628],[-86.895026,35.9211339],[-86.8901122,35.9206995],[-86.8902624,35.9194136],[-86.8873657,35.9191703],[-86.8870223,35.9200044],[-86.8869747,35.9203143],[-86.886967,35.9203645],[-86.8869568,35.9204308],[-86.8865288,35.9232191],[-86.8848372,35.9230409],[-86.8843925,35.9259636],[-86.8880478,35.9274258],[-86.8883624,35.9265469],[-86.8888659,35.9234901],[-86.8901416,35.9228289],[-86.8902123,35.9228325],[-86.8905201,35.9228483],[-86.8947042,35.9230628]]],"type":"Polygon"},"id":"a21e7f29-2b91-3a63-92cf-290c7a26b1bc","properties":{"class":"park","id":"a21e7f29-2b91-3a63-92cf-290c7a26b1bc","names":{"primary":"Jim Warren Park"},"source_tags":[["leisure","park"]],"sources":[{"dataset":"OpenStreetMap","license":"ODbL-1.0","property":"","provider":"osm","record_id":"w85849919@7","resource":"planet","update_time":"2023-01-28T20:24:28.000Z","version":"2026-09-06T00:00:00.000Z"}],"subtype":"park","version":1,"wikidata":"Q49507770"},"type":"Feature"},{"geometry":{"coordinates":[[[-86.8863395,35.9141335],[-86.886007,35.9137161],[-86.8847539,35.9143928],[-86.8849808,35.9147089],[-86.8853393,35.9147418],[-86.8853629,35.9145909],[-86.8854502,35.9145467],[-86.8855223,35.9145841],[-86.8863395,35.9141335]]],"type":"Polygon"},"id":"55938063-f07a-33b7-9bd5-63877a2f1f5f","properties":{"class":"retail","id":"55938063-f07a-33b7-9bd5-63877a2f1f5f","source_tags":[["landuse","retail"]],"sources":[{"dataset":"OpenStreetMap","license":"ODbL-1.0","property":"","provider":"osm","record_id":"w1102626393@1","resource":"planet","update_time":"2022-10-10T14:25:46.000Z","version":"2026-09-06T00:00:00.000Z"}],"subtype":"developed","version":1},"type":"Feature"},{"geometry":{"coordinates":[[[-86.8818165,35.9159493],[-86.8819025,35.9159285],[-86.8819631,35.915838],[-86.8820121,35.9157622],[-86.8822372,35.915638],[-86.8817151,35.9149621],[-86.8812253,35.9151185],[-86.8811458,35.9149216],[-86.8810585,35.914966],[-86.8809734,35.9150159],[-86.8806939,35.9152389],[-86.8811115,35.9154636],[-86.8806689,35.9162969],[-86.8818165,35.9159493]]],"type":"Polygon"},"id":"acaeb404-14ad-3288-a5ad-73df319aaf9d","properties":{"class":"grass","id":"acaeb404-14ad-3288-a5ad-73df319aaf9d","source_tags":[["landuse","grass"]],"sources":[{"dataset":"OpenStreetMap","license":"ODbL-1.0","property":"","provider":"osm","record_id":"w1271364420@1","resource":"planet","update_time":"2024-04-10T04:28:02.000Z","version":"2026-09-06T00:00:00.000Z"}],"subtype":"managed","version":1},"type":"Feature"},{"geometry":{"coordinates":[[[-86.8822645,35.9298268],[-86.8854778,35.9302351],[-86.8860303,35.9269208],[-86.8843298,35.9261084],[-86.884126,35.9272987],[-86.882742,35.9271684],[-86.8822645,35.9298268]]],"type":"Polygon"},"id":"66a532de-7998-3429-923c-a9659a7cafc6","properties":{"class":"school","id":"66a532de-7998-3429-923c-a9659a7cafc6","names":{"primary":"Freedom Intermediate School"},"source_tags":[["amenity","school"]],"sources":[{"dataset":"OpenStreetMap","license":"ODbL-1.0","property":"","provider":"osm","record_id":"w107131175@1","resource":"planet","update_time":"2011-04-03T23:24:01.000Z","version":"2026-09-06T00:00:00.000Z"}],"subtype":"education","version":1},"type":"Feature"},{"geometry":{"coordinates":[[[-86.8812715,35.9256793],[-86.8812885,35.9255896],[-86.8812886,35.9255827],[-86.8812815,35.9255758],[-86.8811826,35.9255601],[-86.881161,35.9255602],[-86.8811546,35.9255675],[-86.8811376,35.925659],[-86.8811405,35.9256734],[-86.8811474,35.9256791],[-86.8812469,35.9256883],[-86.8812618,35.9256905],[-86.8812715,35.9256793]]],"type":"Polygon"},"id":"3186e8c0-8104-317a-a1fb-de4f7f6f90a5","properties":{"class":"playground","id":"3186e8c0-8104-317a-a1fb-de4f7f6f90a5","source_tags":[["leisure","playground"]],"sources":[{"dataset":"OpenStreetMap","license":"ODbL-1.0","property":"","provider":"osm","record_id":"w1271275356@1","resource":"planet","update_time":"2024-04-09T20:16:10.000Z","version":"2026-09-06T00:00:00.000Z"}],"subtype":"recreation","version":1},"type":"Feature"},{"geometry":{"coordinates":[[[-86.8830424,35.9254786],[-86.8808751,35.9244186],[-86.8805425,35.9251093],[-86.8800866,35.9251484],[-86.8802207,35.9256871],[-86.8805694,35.9263908],[-86.8806767,35.926747],[-86.8826615,35.9269555],[-86.8830424,35.9254786]]],"type":"Polygon"},"id":"db4d74e3-a9da-3859-b7ec-2368a4a7d175","properties":{"class":"school","id":"db4d74e3-a9da-3859-b7ec-2368a4a7d175","names":{"primary":"Johnson Elementary School"},"source_tags":[["amenity","school"]],"sources":[{"dataset":"OpenStreetMap","license":"ODbL-1.0","property":"","provider":"osm","record_id":"w107131207@1","resource":"planet","update_time":"2011-04-03T23:24:04.000Z","version":"2026-09-06T00:00:00.000Z"}],"subtype":"education","version":1},"type":"Feature"},{"geometry":{"coordinates":[[[-86.8814886,35.9284434],[-86.8815141,35.9282827],[-86.8811146,35.9282413],[-86.8810891,35.928402],[-86.8814886,35.9284434]]],"type":"Polygon"},"id":"5ace94fb-e493-39f2-b119-58ef5e8e6ab1","properties":{"class":"pitch","id":"5ace94fb-e493-39f2-b119-58ef5e8e6ab1","source_tags":[["leisure","pitch"],["sport","tennis"]],"sources":[{"dataset":"OpenStreetMap","license":"ODbL-1.0","property":"","provider":"osm","record_id":"w1271301516@1","resource":"planet","update_time":"2024-04-09T23:18:25.000Z","version":"2026-09-06T00:00:00.000Z"}],"subtype":"recreation","version":1},"type":"Feature"},{"geometry":{"coordinates":[[[-86.8805318,35.9269555],[-86.8767392,35.9273465],[-86.8769505,35.9286238],[-86.8767113,35.9287091],[-86.8768548,35.9291285],[-86.8765973,35.9309058],[-86.8767122,35.9311484],[-86.8767177,35.9311601],[-86.8800139,35.931572],[-86.8800544,35.9315771],[-86.8808126,35.9278955],[-86.8805318,35.9269555]]],"type":"Polygon"},"id":"20fcf635-03b9-3e14-bc4d-56b37aefb833","properties":{"class":"cemetery","elevation":203,"id":"20fcf635-03b9-3e14-bc4d-56b37aefb833","names":{"primary":"Mount Hope Cemetery"},"source_tags":[["ele","203"],["gnis:feature_id","1294639"],["landuse","cemetery"]],"sources":[{"dataset":"OpenStreetMap","license":"ODbL-1.0","property":"","provider":"osm","record_id":"w107131199@4","resource":"planet","update_time":"2024-08-08T17:48:15.000Z","version":"2026-09-06T00:00:00.000Z"}],"subtype":"cemetery","version":1},"type":"Feature"},{"geometry":{"coordinates":[[[-86.8823853,35.9298016],[-86.8841985,35.9300232],[-86.8843937,35.9288622],[-86.8838218,35.9287876],[-86.8839967,35.9274106],[-86.8828178,35.9272996],[-86.8823853,35.9298016]]],"type":"Polygon"},"id":"18a4a276-13d7-3b42-9910-5e6c6b1c0b57","properties":{"class":"pitch","id":"18a4a276-13d7-3b42-9910-5e6c6b1c0b57","source_tags":[["leisure","pitch"]],"sources":[{"dataset":"OpenStreetMap","license":"ODbL-1.0","property":"","provider":"osm","record_id":"w1384783622@1","resource":"planet","update_time":"2025-05-08T20:39:13.000Z","version":"2026-09-06T00:00:00.000Z"}],"subtype":"recreation","version":1},"type":"Feature"},{"geometry":{"coordinates":[[[-86.8852135,35.9295679],[-86.8853013,35.9289966],[-86.8853136,35.9288956],[-86.8853059,35.9288295],[-86.8852828,35.9287571],[-86.8852412,35.928691],[-86.8851719,35.9286286],[-86.8850825,35.9285812],[-86.8849947,35.9285513],[-86.8848946,35.9285438],[-86.8847913,35.9285588],[-86.884682,35.9285937],[-86.8845911,35.9286611],[-86.8845233,35.9287559],[-86.8844956,35.9288482],[-86.8844648,35.9290216],[-86.884431,35.9292398],[-86.8843802,35.9295492],[-86.8843599,35.9297007],[-86.8843599,35.9297599],[-86.8843761,35.9298159],[-86.8844127,35.9298867],[-86.8844595,35.9299459],[-86.8845347,35.9299953],[-86.8846058,35.9300233],[-86.8847034,35.9300463],[-86.8847827,35.9300496],[-86.8848843,35.9300364],[-86.8849595,35.9300134],[-86.8850368,35.9299706],[-86.8851099,35.9299097],[-86.8851587,35.9298554],[-86.8852135,35.9295679]]],"type":"Polygon"},"id":"9f59e45d-e06b-3940-ab60-749e2aecff9a","properties":{"class":"track","id":"9f59e45d-e06b-3940-ab60-749e2aecff9a","source_tags":[["leisure","track"],["sport","running"]],"sources":[{"dataset":"OpenStreetMap","license":"ODbL-1.0","property":"","provider":"osm","record_id":"w345750340@1","resource":"planet","update_time":"2015-05-17T17:52:55.000Z","version":"2026-09-06T00:00:00.000Z"}],"subtype":"recreation","version":1},"type":"Feature"},{"geometry":{"coordinates":[[[-86.8846147,35.9287813],[-86.8844569,35.9296882],[-86.8850759,35.9297588],[-86.8852336,35.9288519],[-86.8846147,35.9287813]]],"type":"Polygon"},"id":"42a1d46a-94ca-394f-a95a-fe85a0252387","properties":{"class":"pitch","id":"42a1d46a-94ca-394f-a95a-fe85a0252387","source_tags":[["leisure","pitch"],["sport","american_football"]],"sources":[{"dataset":"OpenStreetMap","license":"ODbL-1.0","property":"","provider":"osm","record_id":"w345750343@1","resource":"planet","update_time":"2015-05-17T17:52:55.000Z","version":"2026-09-06T00:00:00.000Z"}],"subtype":"recreation","version":1},"type":"Feature"},{"geometry":{"coordinates":[[[-86.8778759,35.9319589],[-86.8777057,35.9316046],[-86.877671,35.9316155],[-86.8776259,35.9316297],[-86.8777918,35.9319853],[-86.8778493,35.9319672],[-86.8778759,35.9319589]]],"type":"Polygon"},"id":"77567d59-600c-3757-9309-4c4ac7bf333f","properties":{"class":"clinic","id":"77567d59-600c-3757-9309-4c4ac7bf333f","names":{"primary":"North Franklin Internal Medicine & Pediatrics And Walk-In Clinic"},"source_tags":[["amenity","clinic"],["healthcare","clinic"],["indoor","room"],["level","0"]],"sources":[{"dataset":"OpenStreetMap","license":"ODbL-1.0","property":"","provider":"osm","record_id":"w1418743583@1","resource":"planet","update_time":"2025-07-30T19:35:40.000Z","version":"2026-09-06T00:00:00.000Z"}],"subtype":"medical","version":1},"type":"Feature"},{"geometry":{"coordinates":[[[-86.8805775,35.9335691],[-86.8809635,35.9325237],[-86.8810654,35.9318702],[-86.8770675,35.9313526],[-86.8768936,35.9315408],[-86.8777649,35.9335007],[-86.8789679,35.9330234],[-86.8790838,35.9331763],[-86.8795912,35.933245],[-86.8796282,35.9333786],[-86.8804551,35.9335797],[-86.8805775,35.9335691]]],"type":"Polygon"},"id":"5f0d3ac1-723b-34d8-b1ee-3bbddc3e81c8","properties":{"class":"retail","id":"5f0d3ac1-723b-34d8-b1ee-3bbddc3e81c8","names":{"primary":"Independence Square"},"source_tags":[["landuse","retail"]],"sources":[{"dataset":"OpenStreetMap","license":"ODbL-1.0","property":"","provider":"osm","record_id":"w1418743579@1","resource":"planet","update_time":"2025-07-30T19:35:40.000Z","version":"2026-09-06T00:00:00.000Z"}],"subtype":"developed","version":1},"type":"Feature"},{"geometry":{"coordinates":[[[-86.8914882,35.9298803],[-86.8916404,35.928876],[-86.8891881,35.9281244],[-86.8860303,35.9269208],[-86.8854778,35.9302351],[-86.8822645,35.9298268],[-86.8819022,35.9319571],[-86.8810654,35.9318702],[-86.8809635,35.9325237],[-86.8807864,35.9336598],[-86.8794131,35.9335729],[-86.8791986,35.934598],[-86.8778896,35.9345458],[-86.8775463,35.9335903],[-86.876967,35.9322524],[-86.876173,35.9323046],[-86.8757868,35.9317138],[-86.8733192,35.9333644],[-86.8725038,35.9343895],[-86.8724609,35.9347022],[-86.8723965,35.9365265],[-86.8709588,35.9368392],[-86.8699289,35.9380727],[-86.8710876,35.9392714],[-86.8726325,35.9403485],[-86.873126,35.9402269],[-86.8738771,35.9405049],[-86.8751583,35.9411487],[-86.8754946,35.9379012],[-86.8787133,35.9373713],[-86.8796864,35.9409832],[-86.87896,35.9411326],[-86.878842,35.9413324],[-86.8789617,35.9417632],[-86.8790676,35.9421038],[-86.8795536,35.9435899],[-86.8811284,35.9444374],[-86.8819366,35.9443748],[-86.8824068,35.944301],[-86.882918,35.9441855],[-86.883149,35.9441808],[-86.8837437,35.944239],[-86.8844044,35.944131],[-86.8846481,35.9437374],[-86.8846758,35.9435312],[-86.8846172,35.9433617],[-86.8845256,35.9431947],[-86.8845415,35.9389066],[-86.8868375,35.9390977],[-86.8909027,35.9393186],[-86.8916655,35.937204],[-86.8888331,35.9370303],[-86.889863,35.9302891],[-86.8914882,35.9298803]]],"type":"Polygon"},"id":"e85c429f-3525-3cdc-9fdb-48e874d048fa","properties":{"class":"residential","id":"e85c429f-3525-3cdc-9fdb-48e874d048fa","names":{"primary":"Butler Networks"},"source_tags":[["landuse","residential"]],"sources":[{"dataset":"OpenStreetMap","license":"ODbL-1.0","property":"","provider":"osm","record_id":"w107152501@10","resource":"planet","update_time":"2025-07-30T19:35:40.000Z","version":"2026-09-06T00:00:00.000Z"}],"subtype":"residential","version":1},"type":"Feature"},{"geometry":{"coordinates":[[[-86.87896,35.9411326],[-86.8796864,35.9409832],[-86.8787133,35.9373713],[-86.8754946,35.9379012],[-86.8751583,35.9411487],[-86.8751099,35.9417904],[-86.8749785,35.9437641],[-86.8748843,35.9450881],[-86.8771719,35.9448465],[-86.8773483,35.9438726],[-86.8773532,35.9437034],[-86.8775445,35.9436503],[-86.877711,35.9435559],[-86.8781363,35.9437315],[-86.8795536,35.9435899],[-86.8790676,35.9421038],[-86.8789617,35.9417632],[-86.878842,35.9413324],[-86.87896,35.9411326]]],"type":"Polygon"},"id":"a57d4069-17a0-387d-a333-38cb35296518","properties":{"class":"school","id":"a57d4069-17a0-387d-a333-38cb35296518","names":{"primary":"Franklin High School"},"source_tags":[["addr:city","Antler"],["addr:housenumber","810"],["addr:postcode","36711"],["addr:state","TN"],["addr:street","Hillsboro Road"],["amenity","school"],["mascot","Admirals"]],"sources":[{"dataset":"OpenStreetMap","license":"ODbL-1.0","property":"","provider":"osm","record_id":"w107131178@11","resource":"planet","update_time":"2025-03-30T07:50:35.000Z","version":"2026-09-06T00:00:00.000Z"}],"subtype":"education","version":1,"wikidata":"Q5491553"},"type":"Feature"},{"geometry":{"coordinates":[[[-86.8566147,35.9405256],[-86.8594546,35.9409066],[-86.8591891,35.9431021],[-86.8601386,35.943202],[-86.860675,35.9421466],[-86.8610559,35.9421553],[-86.8660458,35.942394],[-86.8654114,35.9418869],[-86.8648975,35.9415489],[-86.8645602,35.9412368],[-86.864544,35.9409761],[-86.8647952,35.9407409],[-86.8655412,35.9405247],[-86.8665226,35.9403213],[-86.866978,35.9402132],[-86.8672842,35.9399272],[-86.8675041,35.9396348],[-86.8677004,35.9388973],[-86.8678653,35.9383888],[-86.8680615,35.9380709],[-86.8685169,35.9377276],[-86.8692079,35.9373716],[-86.8700637,35.9369012],[-86.870629,35.93631],[-86.8707233,35.935706],[-86.8706604,35.9350894],[-86.8707154,35.9346316],[-86.870896,35.9345045],[-86.8712465,35.9343738],[-86.871369,35.9343281],[-86.8672253,35.9324075],[-86.8656669,35.9345033],[-86.8642534,35.9338539],[-86.8640683,35.9340776],[-86.8636123,35.9338518],[-86.8637652,35.9336281],[-86.8631885,35.9333631],[-86.8629659,35.9336498],[-86.8627057,35.9337193],[-86.8618365,35.9333235],[-86.860591,35.9350021],[-86.8619066,35.9356391],[-86.8614694,35.9361516],[-86.8601925,35.935532],[-86.8595391,35.9364011],[-86.8592472,35.9367893],[-86.8598199,35.9370637],[-86.8597797,35.9374069],[-86.8588551,35.9373108],[-86.8588228,35.9373537],[-86.8577416,35.9387918],[-86.8571458,35.9397085],[-86.8566147,35.9405256]]],"type":"Polygon"},"id":"d6111191-6f9e-34da-81d3-a13c951d461e","properties":{"class":"park","id":"d6111191-6f9e-34da-81d3-a13c951d461e","names":{"primary":"The Park at Harlinsdale Farm"},"source_tags":[["leisure","park"]],"sources":[{"dataset":"OpenStreetMap","license":"ODbL-1.0","property":"","provider":"osm","record_id":"w544663373@4","resource":"planet","update_time":"2020-08-31T05:39:19.000Z","version":"2026-09-06T00:00:00.000Z"}],"subtype":"park","version":1},"type":"Feature"},{"geometry":{"coordinates":[[[-86.8604089,35.9351082],[-86.8607141,35.9346837],[-86.8606826,35.9346397],[-86.8596729,35.9341641],[-86.8593761,35.9347142],[-86.8604089,35.9351082]]],"type":"Polygon"},"id":"e2449c55-6def-3497-8374-5ee514485b9b","properties":{"class":"commercial","id":"e2449c55-6def-3497-8374-5ee514485b9b","source_tags":[["landuse","commercial"]],"sources":[{"dataset":"OpenStreetMap","license":"ODbL-1.0","property":"","provider":"osm","record_id":"w1102630493@1","resource":"planet","update_time":"2022-10-10T14:44:13.000Z","version":"2026-09-06T00:00:00.000Z"}],"subtype":"developed","version":1},"type":"Feature"},{"geometry":{"coordinates":[[[-86.8608213,35.9345622],[-86.861746,35.9332752],[-86.8612166,35.9330091],[-86.861027,35.9332712],[-86.8612053,35.9333625],[-86.8609299,35.9337384],[-86.8605635,35.9335634],[-86.8603907,35.9338264],[-86.8606214,35.9339418],[-86.8603402,35.9343337],[-86.8608213,35.9345622]]],"type":"Polygon"},"id":"9ac15ccf-ec36-352f-a6ae-a0e2ac7dce2f","properties":{"class":"retail","id":"9ac15ccf-ec36-352f-a6ae-a0e2ac7dce2f","source_tags":[["landuse","retail"]],"sources":[{"dataset":"OpenStreetMap","license":"ODbL-1.0","property":"","provider":"osm","record_id":"w1102630492@1","resource":"planet","update_time":"2022-10-10T14:44:13.000Z","version":"2026-09-06T00:00:00.000Z"}],"subtype":"developed","version":1},"type":"Feature"},{"geometry":{"coordinates":[[[-86.8712762,35.9282362],[-86.8716706,35.9287639],[-86.8723962,35.9284121],[-86.8724732,35.9285244],[-86.8728799,35.9283173],[-86.8724347,35.9277036],[-86.8712762,35.9282362]]],"type":"Polygon"},"id":"50cfa95c-1f9f-3ee4-9658-c383cd6bac39","properties":{"class":"cemetery","elevation":192,"id":"50cfa95c-1f9f-3ee4-9658-c383cd6bac39","names":{"primary":"Franklin City Cemetery"},"source_tags":[["ele","192"],["gnis:feature_id","1323306"],["landuse","cemetery"]],"sources":[{"dataset":"OpenStreetMap","license":"ODbL-1.0","property":"","provider":"osm","record_id":"w1049807290@3","resource":"planet","update_time":"2024-05-15T14:40:09.000Z","version":"2026-09-06T00:00:00.000Z"}],"subtype":"cemetery","version":1,"wikidata":"Q14709892"},"type":"Feature"},{"geometry":{"coordinates":[[[-86.8738615,35.9293107],[-86.87437,35.9291201],[-86.8741959,35.928541],[-86.8740663,35.9282326],[-86.8739845,35.9279524],[-86.8739387,35.9276855],[-86.8738595,35.927286],[-86.8737908,35.9271503],[-86.8736871,35.9271358],[-86.8726079,35.9276198],[-86.8734841,35.928823],[-86.8738615,35.9293107]]],"type":"Polygon"},"id":"011031c6-f2ea-37d4-b37f-776b4395d519","properties":{"class":"grave_yard","elevation":192,"id":"011031c6-f2ea-37d4-b37f-776b4395d519","names":{"primary":"Rest Haven Cemetery"},"source_tags":[["amenity","grave_yard"],["ele","192"],["gnis:feature_id","1299231"],["landuse","cemetery"]],"sources":[{"dataset":"OpenStreetMap","license":"ODbL-1.0","property":"","provider":"osm","record_id":"w1272064980@2","resource":"planet","update_time":"2024-05-15T14:40:12.000Z","version":"2026-09-06T00:00:00.000Z"}],"subtype":"cemetery","version":1,"wikidata":"Q14710159"},"type":"Feature"},{"geometry":{"coordinates":[[[-86.8684697,35.9269196],[-86.8690711,35.9266555],[-86.8683296,35.9256194],[-86.8677194,35.9258726],[-86.8684697,35.9269196]]],"type":"Polygon"},"id":"b1e7afe4-cd99-3bd1-81c1-040169a9119c","properties":{"class":"retail","id":"b1e7afe4-cd99-3bd1-81c1-040169a9119c","source_tags":[["landuse","retail"]],"sources":[{"dataset":"OpenStreetMap","license":"ODbL-1.0","property":"","provider":"osm","record_id":"w1102625110@1","resource":"planet","update_time":"2022-10-10T14:20:41.000Z","version":"2026-09-06T00:00:00.000Z"}],"subtype":"developed","version":1},"type":"Feature"}],"type":"FeatureCollection"}