{"features":[{"geometry":{"coordinates":[[[-86.8735764,35.9345509],[-86.8736235,35.9344866],[-86.8736424,35.9344058],[-86.8736424,35.9342994],[-86.8735977,35.9341767],[-86.8735503,35.9341066],[-86.8734755,35.934022],[-86.8733893,35.9339776],[-86.8732788,35.9339446],[-86.8731627,35.9339677],[-86.8730589,35.9340447],[-86.8729599,35.9341328],[-86.8728788,35.9342433],[-86.8727929,35.9343528],[-86.8727601,35.9344173],[-86.8727591,35.9344838],[-86.872817,35.9345385],[-86.8729417,35.9346062],[-86.873105,35.934613],[-86.8732466,35.9346164],[-86.8733467,35.9346129],[-86.8734453,35.9346005],[-86.8735224,35.9345924],[-86.8735764,35.9345509]]],"type":"Polygon"},"id":"786f2920-7f2d-3977-9f2f-ca9420309873","properties":{"class":"pond","id":"786f2920-7f2d-3977-9f2f-ca9420309873","source_tags":[["natural","water"],["water","pond"]],"sources":[{"dataset":"OpenStreetMap","license":"ODbL-1.0","property":"","provider":"osm","record_id":"w652977819@1","resource":"planet","update_time":"2018-12-06T00:05:17.000Z","version":"2026-09-06T00:00:00.000Z"}],"subtype":"pond","version":1},"type":"Feature"},{"geometry":{"coordinates":[[[-86.8721448,35.9356941],[-86.8718944,35.9357086],[-86.871903,35.9358053],[-86.8721028,35.9357937],[-86.872104,35.9358075],[-86.8721545,35.9358046],[-86.8721448,35.9356941]]],"type":"Polygon"},"id":"4b4535bc-b835-3fee-ba7d-4d8716c2515a","properties":{"class":"swimming_pool","id":"4b4535bc-b835-3fee-ba7d-4d8716c2515a","source_tags":[["access","private"],["leisure","swimming_pool"]],"sources":[{"dataset":"OpenStreetMap","license":"ODbL-1.0","property":"","provider":"osm","record_id":"w1117260657@1","resource":"planet","update_time":"2022-11-25T22:31:32.000Z","version":"2026-09-06T00:00:00.000Z"}],"subtype":"human_made","version":1},"type":"Feature"},{"geometry":{"coordinates":[[[-86.8771426,35.9336841],[-86.8770779,35.9337009],[-86.8771189,35.9338046],[-86.8771835,35.9337878],[-86.8771426,35.9336841]]],"type":"Polygon"},"id":"cf3ff954-07ea-35aa-8d0f-d1a513bc809b","properties":{"class":"swimming_pool","id":"cf3ff954-07ea-35aa-8d0f-d1a513bc809b","source_tags":[["access","private"],["leisure","swimming_pool"]],"sources":[{"dataset":"OpenStreetMap","license":"ODbL-1.0","property":"","provider":"osm","record_id":"w1117260658@1","resource":"planet","update_time":"2022-11-25T22:31:32.000Z","version":"2026-09-06T00:00:00.000Z"}],"subtype":"human_made","version":1},"type":"Feature"},{"geometry":{"coordinates":[[[-86.881183,35.9285818],[-86.8811101,35.9285743],[-86.881092,35.9286899],[-86.8811649,35.9286974],[-86.881183,35.9285818]]],"type":"Polygon"},"id":"2ded50cb-f3bc-3f67-8919-e59a2b47ce18","properties":{"class":"swimming_pool","id":"2ded50cb-f3bc-3f67-8919-e59a2b47ce18","source_tags":[["leisure","swimming_pool"]],"sources":[{"dataset":"OpenStreetMap","license":"ODbL-1.0","property":"","provider":"osm","record_id":"w1117260718@1","resource":"planet","update_time":"2022-11-25T22:31:32.000Z","version":"2026-09-06T00:00:00.000Z"}],"subtype":"human_made","version":1},"type":"Feature"},{"geometry":{"coordinates":[[[-86.881522,35.9299745],[-86.8814552,35.9299665],[-86.8814354,35.9300745],[-86.8815022,35.9300826],[-86.881522,35.9299745]]],"type":"Polygon"},"id":"22b1dd09-60e4-3f34-bd27-6fdb44b1c501","properties":{"class":"swimming_pool","id":"22b1dd09-60e4-3f34-bd27-6fdb44b1c501","source_tags":[["leisure","swimming_pool"]],"sources":[{"dataset":"OpenStreetMap","license":"ODbL-1.0","property":"","provider":"osm","record_id":"w1117260717@1","resource":"planet","update_time":"2022-11-25T22:31:32.000Z","version":"2026-09-06T00:00:00.000Z"}],"subtype":"human_made","version":1},"type":"Feature"},{"geometry":{"coordinates":[[[-86.8855185,35.9262466],[-86.8856156,35.926254],[-86.8856793,35.9261508],[-86.885652,35.926082],[-86.8855974,35.926023],[-86.8854609,35.9258633],[-86.885385,35.9257134],[-86.8853122,35.9255537],[-86.8853364,35.925475],[-86.8853728,35.9253006],[-86.8853789,35.9251998],[-86.8853243,35.9251605],[-86.8852302,35.9251777],[-86.8851635,35.9251433],[-86.8851513,35.925072],[-86.8850633,35.9249787],[-86.884948,35.9248705],[-86.8848418,35.9247894],[-86.8847265,35.9247501],[-86.8846628,35.9247894],[-86.8845323,35.9254824],[-86.8846597,35.9255881],[-86.8847629,35.9256471],[-86.8848661,35.925679],[-86.8851362,35.9258977],[-86.8851726,35.9260402],[-86.8852545,35.9261361],[-86.8853182,35.9262024],[-86.8854244,35.9262294],[-86.8855185,35.9262466]]],"type":"Polygon"},"id":"53d15a7d-c6ae-337a-9fc6-8b0a6089c872","properties":{"class":"lake","id":"53d15a7d-c6ae-337a-9fc6-8b0a6089c872","source_tags":[["natural","water"],["water","lake"]],"sources":[{"dataset":"OpenStreetMap","license":"ODbL-1.0","property":"","provider":"osm","record_id":"w1085609874@1","resource":"planet","update_time":"2022-08-11T13:43:24.000Z","version":"2026-09-06T00:00:00.000Z"}],"subtype":"lake","version":1},"type":"Feature"},{"geometry":{"coordinates":[[-86.886988,35.9196878],[-86.8866527,35.9197182],[-86.8864408,35.9197682],[-86.886304,35.919816],[-86.8862236,35.9198116],[-86.8858802,35.9199441],[-86.8855798,35.9200245],[-86.8853545,35.9201201],[-86.8851078,35.9201179],[-86.8847349,35.9202243],[-86.8841448,35.9204111],[-86.8839812,35.9203959],[-86.8836647,35.9204372],[-86.8833885,35.920498],[-86.8831068,35.9205762],[-86.8828386,35.9207391],[-86.882498,35.9209129],[-86.8821225,35.9210975],[-86.881924,35.9212279],[-86.8816263,35.9212909],[-86.8811166,35.9213386],[-86.8804488,35.9215472],[-86.8803844,35.9216145],[-86.8803227,35.9220554],[-86.8802476,35.9223899],[-86.8801859,35.9226028],[-86.8800867,35.9227049],[-86.879561,35.9231024],[-86.8793678,35.9232023],[-86.8792579,35.9232761],[-86.8791479,35.923363],[-86.8790755,35.9234543],[-86.8789816,35.9234977],[-86.8787885,35.9235889],[-86.8786034,35.9236649],[-86.8784693,35.9237258]],"type":"LineString"},"id":"77781cca-0d5c-3a99-9dae-f0c390111466","properties":{"class":"stream","id":"77781cca-0d5c-3a99-9dae-f0c390111466","is_intermittent":true,"source_tags":[["intermittent","yes"],["waterway","stream"]],"sources":[{"dataset":"OpenStreetMap","license":"ODbL-1.0","property":"","provider":"osm","record_id":"w564121085@3","resource":"planet","update_time":"2022-09-23T04:07:03.000Z","version":"2026-09-06T00:00:00.000Z"}],"subtype":"stream","version":1},"type":"Feature"},{"geometry":{"coordinates":[[-86.8784693,35.9237258],[-86.8784022,35.924032]],"type":"LineString"},"id":"04205528-8fbf-35a2-af4a-1d9310eb5ab9","properties":{"class":"stream","id":"04205528-8fbf-35a2-af4a-1d9310eb5ab9","level":-1,"source_tags":[["tunnel","culvert"],["waterway","stream"]],"sources":[{"dataset":"OpenStreetMap","license":"ODbL-1.0","property":"","provider":"osm","record_id":"w564121084@1","resource":"planet","update_time":"2018-02-25T19:13:09.000Z","version":"2026-09-06T00:00:00.000Z"}],"subtype":"stream","version":1},"type":"Feature"},{"geometry":{"coordinates":[[-86.8784022,35.924032],[-86.8783405,35.9243404],[-86.8782493,35.9244208],[-86.8780562,35.9244925],[-86.8772757,35.924512],[-86.8765703,35.9244773],[-86.876176,35.924436],[-86.8760714,35.92441]],"type":"LineString"},"id":"d7824e50-07f6-37ca-a357-7137de0b6b60","properties":{"class":"stream","id":"d7824e50-07f6-37ca-a357-7137de0b6b60","source_tags":[["waterway","stream"]],"sources":[{"dataset":"OpenStreetMap","license":"ODbL-1.0","property":"","provider":"osm","record_id":"w564121083@1","resource":"planet","update_time":"2018-02-25T19:13:09.000Z","version":"2026-09-06T00:00:00.000Z"}],"subtype":"stream","version":1},"type":"Feature"},{"geometry":{"coordinates":[[-86.8760714,35.92441],[-86.875822,35.9244686]],"type":"LineString"},"id":"695e28f6-dfd3-30f0-8a2a-f946b7b7d9e7","properties":{"class":"stream","id":"695e28f6-dfd3-30f0-8a2a-f946b7b7d9e7","level":-1,"source_tags":[["tunnel","culvert"],["waterway","stream"]],"sources":[{"dataset":"OpenStreetMap","license":"ODbL-1.0","property":"","provider":"osm","record_id":"w564121082@1","resource":"planet","update_time":"2018-02-25T19:13:09.000Z","version":"2026-09-06T00:00:00.000Z"}],"subtype":"stream","version":1},"type":"Feature"},{"geometry":{"coordinates":[[-86.875822,35.9244686],[-86.8756771,35.9246532],[-86.8755913,35.9247401],[-86.8754733,35.9248183],[-86.8753392,35.9249182],[-86.875205,35.9250529],[-86.8750978,35.9251919],[-86.8749288,35.9253591],[-86.8748142,35.9254954],[-86.8748188,35.925635],[-86.8749207,35.9259238],[-86.8749502,35.9261888],[-86.8748966,35.926545],[-86.8748564,35.9268687],[-86.8748617,35.9271097],[-86.8749395,35.9273183],[-86.8749717,35.9278156],[-86.87502,35.9281262],[-86.8750602,35.9283043],[-86.8751246,35.928452],[-86.8749154,35.9288234],[-86.8748269,35.9289407],[-86.8747678,35.9290015],[-86.8748671,35.9292143],[-86.8749663,35.9295423],[-86.8750495,35.9296878],[-86.8751702,35.9298029],[-86.8752426,35.9299072],[-86.8752572,35.9299883]],"type":"LineString"},"id":"c95b4ba8-a004-3c50-8b8f-64db78b108ea","properties":{"class":"stream","id":"c95b4ba8-a004-3c50-8b8f-64db78b108ea","source_tags":[["waterway","stream"]],"sources":[{"dataset":"OpenStreetMap","license":"ODbL-1.0","property":"","provider":"osm","record_id":"w564123537@1","resource":"planet","update_time":"2018-02-25T19:34:53.000Z","version":"2026-09-06T00:00:00.000Z"}],"subtype":"stream","version":1},"type":"Feature"},{"geometry":{"coordinates":[[[-86.8561402,35.9311996],[-86.8561648,35.9311554],[-86.856158,35.9311359],[-86.8561548,35.9311171],[-86.8561612,35.9310965],[-86.8561798,35.9310747],[-86.8562212,35.9310552],[-86.8562307,35.9310408],[-86.8561407,35.9310062],[-86.8561129,35.9310578],[-86.8561234,35.9310652],[-86.8561248,35.9310766],[-86.8561166,35.9310873],[-86.856097,35.931088],[-86.8560484,35.9311712],[-86.8561402,35.9311996]]],"type":"Polygon"},"id":"95dbb0dc-0055-3452-97d9-7d0cd44a382e","properties":{"class":"swimming_pool","id":"95dbb0dc-0055-3452-97d9-7d0cd44a382e","source_tags":[["access","private"],["leisure","swimming_pool"]],"sources":[{"dataset":"OpenStreetMap","license":"ODbL-1.0","property":"","provider":"osm","record_id":"w1421532715@1","resource":"planet","update_time":"2025-08-11T12:32:25.000Z","version":"2026-09-06T00:00:00.000Z"}],"subtype":"human_made","version":1},"type":"Feature"},{"geometry":{"coordinates":[[-86.727362,35.8498134],[-86.727712,35.8497368],[-86.7282229,35.8496716],[-86.7288851,35.8497751],[-86.7293203,35.8499246],[-86.729396,35.8501355],[-86.7293014,35.8504269],[-86.7291784,35.8506378],[-86.7292588,35.8508257],[-86.7296845,35.8512474],[-86.7300109,35.8513739],[-86.7303468,35.8513548],[-86.7309522,35.8513509],[-86.7313827,35.8514966],[-86.7317753,35.8516538],[-86.7321632,35.8518609],[-86.7324186,35.8521829],[-86.7326599,35.8523439],[-86.7330383,35.8523439],[-86.733412,35.8522404],[-86.7336863,35.8519605],[-86.7339891,35.8519567],[-86.7344574,35.8520756],[-86.734656,35.8521561],[-86.7352572,35.8522257],[-86.7361249,35.8523799],[-86.7366678,35.8524852],[-86.7368395,35.8524514],[-86.7374428,35.8519925],[-86.738046,35.8514058],[-86.7383012,35.850962],[-86.7388766,35.8508604],[-86.7398697,35.8507325],[-86.740278,35.8507062],[-86.7429369,35.8499088],[-86.7434056,35.8498712],[-86.7445332,35.8498562],[-86.7453684,35.8498675],[-86.7458,35.850048],[-86.746083,35.8504693],[-86.7463811,35.8510333],[-86.7466269,35.8515499],[-86.7467725,35.852096],[-86.7467452,35.8525682],[-86.7471458,35.8527748],[-86.7479106,35.8529372],[-86.7487664,35.8530922],[-86.7494947,35.8532988],[-86.7498316,35.8535718],[-86.7501047,35.85414],[-86.7505599,35.8550033],[-86.751179,35.8557929],[-86.7514066,35.8564127],[-86.7512974,35.8567891],[-86.751006,35.8574974],[-86.7507966,35.8580287],[-86.7504689,35.8584419],[-86.7501138,35.8589068],[-86.7501138,35.8593569],[-86.7502595,35.8598512],[-86.7506601,35.8601759],[-86.7513884,35.8603382],[-86.7522806,35.86053],[-86.7525476,35.8608312],[-86.7526929,35.8613507],[-86.7526266,35.8617832],[-86.7524876,35.862318],[-86.7524308,35.8628631],[-86.7524624,35.8637024],[-86.7523266,35.8645418],[-86.7522982,35.8648514],[-86.7521056,35.8652839],[-86.7519098,35.8656984],[-86.7518782,35.8660541],[-86.7519351,35.8663842],[-86.7521119,35.8666427],[-86.7523803,35.8667936],[-86.7527687,35.8668474],[-86.7531855,35.8668013],[-86.7535044,35.8666836],[-86.7538833,35.8664815],[-86.7544612,35.8662307],[-86.7548117,35.8659441],[-86.7551369,35.8655961],[-86.7553832,35.8652122],[-86.7557811,35.8647593],[-86.7561632,35.8643652],[-86.7565263,35.8641042],[-86.7570157,35.863728],[-86.7573978,35.8634619],[-86.7576788,35.8632392],[-86.7579662,35.8629347],[-86.7582251,35.862602],[-86.758383,35.8622668],[-86.7583914,35.8620813],[-86.7585491,35.8619606],[-86.7588339,35.8619074],[-86.7593464,35.8619713],[-86.7600079,35.8621168],[-86.7620932,35.862273],[-86.7626407,35.8622553],[-86.7629649,35.8620955],[-86.7632102,35.8619358],[-86.7634556,35.8617653],[-86.7637228,35.861318],[-86.7639944,35.8607464],[-86.7643492,35.8602245],[-86.7646165,35.8597843],[-86.7649888,35.8595286],[-86.7653261,35.8593689],[-86.765716,35.8593618],[-86.7661366,35.8594434],[-86.7666579,35.8596813],[-86.7670697,35.8599973],[-86.7673851,35.8603914],[-86.7675296,35.8606861],[-86.7676567,35.8610943],[-86.7677224,35.8614423],[-86.7678144,35.8619003],[-86.7678889,35.8622304],[-86.7680247,35.8625358],[-86.7681123,35.8627843],[-86.7682656,35.8632281],[-86.7682481,35.8636186],[-86.7681648,35.8638245],[-86.7677706,35.8642186],[-86.7675691,35.8644564],[-86.7675778,35.864854],[-86.7676523,35.865312],[-86.767924,35.8659403],[-86.7681975,35.8662605],[-86.7684467,35.8666151],[-86.7696075,35.8677281],[-86.7697776,35.8680778],[-86.769729,35.8683733],[-86.7695285,35.8686491],[-86.7690362,35.8690431],[-86.7686412,35.8693386],[-86.768234,35.8697178],[-86.7680273,35.8700577],[-86.7681003,35.8703137],[-86.7684406,35.87056],[-86.769024,35.8708506],[-86.769492,35.8710426],[-86.7700511,35.8712741],[-86.77075,35.8713135],[-86.7716617,35.8714218],[-86.7724943,35.8715253],[-86.7734485,35.8715794],[-86.7739894,35.8717518],[-86.774354,35.8720818],[-86.7748281,35.8725053],[-86.7753872,35.8730519],[-86.776001,35.8735099],[-86.7769673,35.8740221],[-86.7775354,35.874109],[-86.7786581,35.8740934],[-86.7793703,35.8739426],[-86.7801209,35.8735631],[-86.7807753,35.8733656],[-86.7820135,35.8731265],[-86.7829309,35.8729029],[-86.7833116,35.8728547],[-86.7836331,35.8730036],[-86.7840989,35.8745507],[-86.783994,35.8751036],[-86.7839021,35.8756724],[-86.7840399,35.8760552],[-86.7846238,35.8762891],[-86.7858901,35.8764805],[-86.7867794,35.8766136],[-86.787643,35.8769827],[-86.7883167,35.8774824],[-86.7890759,35.8779515],[-86.7898825,35.8781514],[-86.791192,35.878259],[-86.7920176,35.8782898],[-86.7926913,35.8782744],[-86.7930519,35.8779899],[-86.7934884,35.8770903],[-86.7937636,35.8764214],[-86.7938206,35.8759831],[-86.7933936,35.8754448],[-86.7930424,35.8749681],[-86.7930424,35.8746375],[-86.7933081,35.8744068],[-86.7942002,35.8742837],[-86.796098,35.8741761],[-86.7968192,35.8741069],[-86.7977112,35.8737916],[-86.7982711,35.8732764],[-86.7985843,35.8727305],[-86.7988405,35.8716616],[-86.7990569,35.8708493],[-86.799319,35.869591],[-86.7996392,35.8688596],[-86.7999013,35.8686394],[-86.8006679,35.8686001],[-86.8010755,35.868836],[-86.8013861,35.8693629],[-86.8020363,35.8700314],[-86.8028224,35.8707392],[-86.8030528,35.8710912],[-86.8031621,35.8712582],[-86.8032494,35.8718244],[-86.8034726,35.8722884],[-86.8041519,35.8726265],[-86.8055688,35.8731456],[-86.806976,35.8737511],[-86.8081697,35.8742151],[-86.8088393,35.8747262],[-86.8094604,35.875316],[-86.809936,35.8757799],[-86.8102368,35.876527],[-86.8104813,35.8776068],[-86.8109586,35.8784256],[-86.8116323,35.8787782],[-86.813443,35.878619],[-86.8145238,35.8784825],[-86.8151554,35.8780731],[-86.8164327,35.8772542],[-86.8170362,35.8770495],[-86.8186223,35.8773566],[-86.8191532,35.8773627],[-86.8196792,35.8771295],[-86.8204136,35.8763413],[-86.8210786,35.8756256],[-86.821823,35.8747248],[-86.8225078,35.8741538],[-86.8237286,35.8734783],[-86.8238146,35.8734569],[-86.8245028,35.8732853],[-86.8249792,35.8732451],[-86.8254853,35.873422],[-86.8260114,35.8739447],[-86.8268649,35.8747731],[-86.8279765,35.8757221],[-86.8285026,35.8762207],[-86.8285125,35.8766871],[-86.8281453,35.8772662],[-86.8277185,35.8776522],[-86.8268749,35.8777487],[-86.8261205,35.8776924],[-86.824999,35.877435],[-86.824344,35.8773305],[-86.8240264,35.8774029],[-86.823947,35.8779015],[-86.823947,35.8793651],[-86.8237882,35.8801371],[-86.8237981,35.8808207],[-86.8241455,35.8817374],[-86.8246219,35.8827908],[-86.8248402,35.8834502],[-86.8250387,35.8843026],[-86.8248501,35.8848575],[-86.8245028,35.8853239],[-86.8239767,35.8856294],[-86.8234805,35.8857822],[-86.822488,35.8857902],[-86.8217039,35.8859832],[-86.821158,35.8863129],[-86.8210985,35.8866346],[-86.8213246,35.8870754],[-86.8216189,35.8877092],[-86.8219046,35.8882183],[-86.8222396,35.8885225],[-86.822879,35.8887281],[-86.8234271,35.8891228],[-86.823752,35.8893613],[-86.8242392,35.8893366],[-86.8247467,35.8891228],[-86.8254065,35.8887363],[-86.8260053,35.8883252],[-86.8264012,35.8880538],[-86.826726,35.8880373],[-86.827061,35.8883498],[-86.8274873,35.8891968],[-86.8278933,35.8902741],[-86.8281572,35.8911293],[-86.8283602,35.8917049],[-86.8286952,35.8919927],[-86.830238,35.892149],[-86.8306994,35.8919103],[-86.8309126,35.891491],[-86.8307603,35.8908824],[-86.8307705,35.8902081],[-86.830872,35.8890569],[-86.8311054,35.8884319],[-86.8314911,35.8882757],[-86.8321509,35.8880865],[-86.8331456,35.8876754],[-86.8340287,35.8872889],[-86.83479,35.8868777],[-86.8353279,35.8864994],[-86.8359979,35.8861458],[-86.8366069,35.8859566],[-86.8377843,35.8863103],[-86.8388907,35.8866721],[-86.8393863,35.886949],[-86.839895,35.8874242],[-86.8402583,35.8878783],[-86.8405801,35.8880297],[-86.8410369,35.8884418],[-86.8412237,35.8887404],[-86.8414002,35.8892155],[-86.8417947,35.889472],[-86.842568,35.8897159],[-86.8434919,35.8900019],[-86.8438968,35.8903551],[-86.8440421,35.8908597],[-86.8440836,35.89218],[-86.8439175,35.8935171],[-86.8438523,35.8943497],[-86.84364,35.8950292],[-86.8430561,35.8954678],[-86.8424404,35.8956656],[-86.8419732,35.8959838],[-86.8417255,35.8961176],[-86.8415829,35.896373],[-86.8414928,35.8966588],[-86.8415003,35.8969933],[-86.8418081,35.8976622],[-86.8423936,35.8985744],[-86.8427014,35.8991156],[-86.842814,35.8996021],[-86.842799,35.8999669],[-86.842844,35.9004899],[-86.8430392,35.9008608],[-86.8434296,35.9010797],[-86.8438875,35.9012561],[-86.8445256,35.901475],[-86.8446907,35.9013838],[-86.8450135,35.9009459],[-86.8452763,35.9005872],[-86.845554,35.9004777],[-86.8459069,35.9006115],[-86.8461621,35.9009824],[-86.8463273,35.9020648],[-86.8462147,35.904266],[-86.8463122,35.9044971],[-86.8482265,35.9054943],[-86.8494957,35.9063254],[-86.8499808,35.906753],[-86.8506243,35.9073203],[-86.8510235,35.9076064],[-86.851868,35.9079111],[-86.8529505,35.908166],[-86.8534649,35.9084396],[-86.8540407,35.9087692],[-86.8547163,35.9089314],[-86.8551358,35.9090959],[-86.8554923,35.9093039],[-86.8558122,35.9094446],[-86.8560051,35.9094927],[-86.8562679,35.9095408],[-86.8565666,35.9095776],[-86.8571347,35.9094967],[-86.8575111,35.9094392],[-86.8579794,35.9096693],[-86.8591233,35.9102973],[-86.8595763,35.9107139],[-86.8609736,35.9120403],[-86.8610043,35.9120695],[-86.8618718,35.9129089],[-86.8625398,35.9132633],[-86.8627678,35.9134106],[-86.8631847,35.9136799],[-86.8634994,35.9140592],[-86.8637681,35.9146748],[-86.864175,35.9152841],[-86.8650426,35.9158313],[-86.8656107,35.916223],[-86.8661635,35.9164531],[-86.8666011,35.9167266],[-86.8670464,35.9172489],[-86.8670906,35.9181102],[-86.8668517,35.9186026],[-86.8661297,35.91975],[-86.8656031,35.920515],[-86.8653359,35.9207994],[-86.8652231,35.9209195],[-86.8646314,35.9211393],[-86.8638985,35.9215526],[-86.8634642,35.9218427],[-86.8629756,35.9220977],[-86.8625739,35.9225241],[-86.8621124,35.9230561],[-86.8615424,35.9236759],[-86.8611516,35.9240496],[-86.8608367,35.9244013],[-86.8608421,35.9249244],[-86.8611136,35.925386],[-86.861575,35.9257993],[-86.862297,35.9262872],[-86.8630408,35.9266257],[-86.8637519,35.926973],[-86.8643545,35.9271269],[-86.8651525,35.9272104],[-86.865576,35.9273511],[-86.8660971,35.9274522],[-86.8665477,35.9275753],[-86.8669766,35.9277423],[-86.8672209,35.9279665],[-86.8674489,35.9283973],[-86.8679049,35.9287841],[-86.868198,35.929127],[-86.8685618,35.9297249],[-86.8688875,35.9301381],[-86.8693924,35.9304282],[-86.8701144,35.9306216],[-86.8706355,35.9306612],[-86.8712979,35.9305645],[-86.872693,35.9301952],[-86.8735888,35.9299271],[-86.8742457,35.9298304],[-86.874908,35.9298611],[-86.8751957,35.9299446],[-86.8752572,35.9299883],[-86.8754617,35.9301337],[-86.8756734,35.9304194],[-86.8757006,35.9307535],[-86.8754671,35.93107],[-86.8751673,35.9316372],[-86.8750495,35.9318915],[-86.8738325,35.9327625],[-86.8723172,35.933767],[-86.8714927,35.934282],[-86.871369,35.9343281],[-86.8712465,35.9343738],[-86.870896,35.9345045],[-86.8707154,35.9346316],[-86.8706604,35.9350894],[-86.8707233,35.935706],[-86.870629,35.93631],[-86.8700637,35.9369012],[-86.8692079,35.9373716],[-86.8685169,35.9377276],[-86.8680615,35.9380709],[-86.8678653,35.9383888],[-86.8677004,35.9388973],[-86.8675041,35.9396348],[-86.8672842,35.9399272],[-86.866978,35.9402132],[-86.8665226,35.9403213],[-86.8655412,35.9405247],[-86.8647952,35.9407409],[-86.864544,35.9409761],[-86.8645602,35.9412368],[-86.8648975,35.9415489],[-86.8654114,35.9418869],[-86.8660458,35.942394],[-86.8665918,35.9428036],[-86.8673627,35.9430311],[-86.8679248,35.9432586],[-86.868527,35.9434212],[-86.8689285,35.9436162],[-86.8692577,35.9439542],[-86.8695548,35.9443378],[-86.8700286,35.9445783],[-86.8705666,35.9447994],[-86.8710564,35.9450984],[-86.8713937,35.9454299],[-86.8715944,35.9457485],[-86.8721806,35.9473542],[-86.872542,35.9483098],[-86.8727748,35.9487063],[-86.8732022,35.9488014],[-86.8734172,35.9488493],[-86.8743166,35.9488363],[-86.8751758,35.9486803],[-86.8762887,35.9484138],[-86.8769584,35.9482838],[-86.8778497,35.9481017],[-86.878733,35.9478807],[-86.8794851,35.9479284],[-86.8800077,35.9479613],[-86.8804491,35.948154],[-86.8810588,35.9482386],[-86.8814072,35.9482151],[-86.8820634,35.9480694],[-86.8825337,35.9477027],[-86.8830912,35.9470164],[-86.8836951,35.9460573],[-86.88427,35.9451171],[-86.8846997,35.944694],[-86.885774,35.9437867],[-86.8865695,35.9429922],[-86.8873244,35.9419767],[-86.8877774,35.9411681],[-86.8885903,35.9398517],[-86.8889852,35.9395226],[-86.8895543,35.9396072],[-86.8905995,35.9397858],[-86.891157,35.9399269],[-86.8916331,35.9405193],[-86.891819,35.9408954],[-86.8919235,35.9412527],[-86.8917144,35.9430768],[-86.8915867,35.9438666],[-86.8912847,35.944647],[-86.8910989,35.9454086],[-86.8911105,35.9464898],[-86.8915867,35.948013],[-86.8921674,35.9489344],[-86.892899,35.9498933],[-86.8935843,35.951125],[-86.8938862,35.951595],[-86.8938771,35.9521738],[-86.8939483,35.9527699],[-86.8937227,35.9532699],[-86.8929506,35.9536833],[-86.8921667,35.953741],[-86.8910859,35.9534045],[-86.8900407,35.952693],[-86.8890905,35.9521546],[-86.8884372,35.9519046],[-86.887487,35.9520007],[-86.8858242,35.9525584],[-86.8850878,35.9531449],[-86.8840663,35.954366],[-86.8838406,35.9547698],[-86.8838406,35.9553755],[-86.8843632,35.9558755],[-86.8852541,35.9562023],[-86.8862636,35.956385],[-86.8876652,35.9566254],[-86.8888886,35.9565388],[-86.8892545,35.9564583],[-86.8895847,35.9564762],[-86.889807,35.9565668],[-86.8899932,35.9567023],[-86.8901001,35.9571638],[-86.8898981,35.9585674],[-86.8895656,35.9595385],[-86.8896725,35.9601345],[-86.8900763,35.9603268],[-86.8906286,35.9603028],[-86.8917451,35.9600528],[-86.893111,35.9597404],[-86.8938296,35.9595673],[-86.8944056,35.9593798],[-86.8948748,35.959351],[-86.8953974,35.9596586],[-86.8962347,35.9604566],[-86.8967574,35.9609805],[-86.8970305,35.9613314],[-86.8974225,35.9615333],[-86.8980698,35.9616102],[-86.8987409,35.9615285],[-86.899893,35.9612353],[-86.9014371,35.9611344],[-86.9024183,35.9610747],[-86.9033116,35.9610678],[-86.9035618,35.9610995],[-86.9037239,35.9612068],[-86.9042736,35.9618534],[-86.9045571,35.9625138],[-86.9044969,35.9633481],[-86.9042736,35.9640502],[-86.9039386,35.964662],[-86.9034319,35.9652877],[-86.9024785,35.9657674],[-86.9010612,35.9665251],[-86.900717,35.9668496],[-86.9006962,35.9668692],[-86.9004686,35.9672829],[-86.90049,35.96762],[-86.9005631,35.9678216],[-86.9008852,35.9681727],[-86.9011686,35.9683604],[-86.901757,35.9685272],[-86.903565,35.9693301],[-86.9041834,35.9693823],[-86.9054285,35.9695002],[-86.9059144,35.9697804],[-86.9065278,35.970208],[-86.906959,35.9701884],[-86.9083924,35.9700262],[-86.9096435,35.9697313],[-86.9102343,35.9695207],[-86.9108843,35.9692861],[-86.9114816,35.9689377],[-86.9124127,35.9687529],[-86.9132824,35.9687387],[-86.9142311,35.9687031],[-86.9155048,35.9684685],[-86.9164183,35.9682623],[-86.9181049,35.9684045],[-86.9185529,35.9684756]],"type":"LineString"},"id":"6fae362b-1773-33aa-af66-cbd4cabde611","properties":{"class":"river","id":"6fae362b-1773-33aa-af66-cbd4cabde611","names":{"primary":"Harpeth River"},"source_tags":[["waterway","river"]],"sources":[{"dataset":"OpenStreetMap","license":"ODbL-1.0","property":"","provider":"osm","record_id":"w249751319@11","resource":"planet","update_time":"2025-10-23T20:01:30.000Z","version":"2026-09-06T00:00:00.000Z"}],"subtype":"river","version":1},"type":"Feature"}],"type":"FeatureCollection"}