{"features":[{"geometry":{"coordinates":[[[-86.8557999,35.9370485],[-86.8518771,35.9366098],[-86.8483653,35.9362771],[-86.8481785,35.9369728],[-86.8472445,35.9371241],[-86.8476181,35.9358234],[-86.8454699,35.9352335],[-86.8441062,35.9346285],[-86.8430601,35.9340235],[-86.8423129,35.9333429],[-86.8418781,35.9326041],[-86.8418053,35.9326644],[-86.8414089,35.9335672],[-86.8408906,35.9346454],[-86.8407355,35.9348898],[-86.8409934,35.935249],[-86.8409902,35.935712],[-86.8411734,35.9359473],[-86.8410161,35.9361076],[-86.840644,35.9361249],[-86.8400711,35.9360751],[-86.8399731,35.9359089],[-86.8400553,35.9356148],[-86.8403269,35.9354357],[-86.8405449,35.9352823],[-86.8405922,35.9350649],[-86.8405543,35.9348731],[-86.8406301,35.9346097],[-86.8403648,35.9346352],[-86.8395831,35.9357963],[-86.8394526,35.9360208],[-86.8391845,35.9365054],[-86.8389549,35.9369507],[-86.8387535,35.9375739],[-86.8387475,35.9376234],[-86.8386739,35.9382297],[-86.8386702,35.9382604],[-86.8387384,35.9388778],[-86.8387445,35.9389328],[-86.8388893,35.9393729],[-86.8389933,35.9396645],[-86.8394496,35.9403462],[-86.8396089,35.9403156],[-86.8399075,35.9401375],[-86.8400528,35.9402299],[-86.8402919,35.9403069],[-86.8404345,35.9403935],[-86.8405664,35.9404987],[-86.8408071,35.9407175],[-86.8410238,35.9409492],[-86.8412005,35.9411059],[-86.8414152,35.9412632],[-86.841543,35.9413438],[-86.8416884,35.9414214],[-86.8419257,35.9415216],[-86.842163,35.9416119],[-86.8426295,35.9418901],[-86.842859,35.9420387],[-86.8429862,35.9421044],[-86.8431133,35.9421501],[-86.8433884,35.9421112],[-86.8436288,35.9420487],[-86.8438614,35.9419691],[-86.844337,35.9418242],[-86.8450648,35.9418769],[-86.8459592,35.9419164],[-86.8467926,35.9419164],[-86.8475528,35.941867],[-86.8482236,35.9418045],[-86.8489554,35.9417321],[-86.8492781,35.9416722],[-86.8492059,35.941253],[-86.8492059,35.9406178],[-86.8493366,35.9405875],[-86.8494113,35.9408295],[-86.8499717,35.94089],[-86.8509057,35.9406631],[-86.8496542,35.939302],[-86.8510925,35.9387424],[-86.8515222,35.9375476],[-86.8555944,35.9377896],[-86.8557999,35.9370485]]],"type":"Polygon"},"id":"475cfe00-7470-316a-93a9-6edca444c7f2","properties":{"class":"wood","id":"475cfe00-7470-316a-93a9-6edca444c7f2","source_tags":[["natural","wood"]],"sources":[{"dataset":"OpenStreetMap","license":"ODbL-1.0","property":"","provider":"osm","record_id":"w368365232@7","resource":"planet","update_time":"2024-02-02T09:42:01.000Z","version":"2026-09-06T00:00:00.000Z"}],"subtype":"forest","version":1},"type":"Feature"},{"geometry":{"coordinates":[[[-86.8471993,35.9096664],[-86.8476874,35.909762],[-86.8476713,35.9099488],[-86.8474836,35.910644],[-86.8475104,35.9108004],[-86.8474836,35.9110046],[-86.8473709,35.911161],[-86.8471621,35.9113838],[-86.847151,35.9113956],[-86.8470759,35.9114782],[-86.8472905,35.911526],[-86.847489,35.9113696],[-86.847666,35.9113261],[-86.8479718,35.9115303],[-86.8478698,35.9117345],[-86.8479342,35.9118171],[-86.8480522,35.9118301],[-86.848122,35.9116476],[-86.8482185,35.9117345],[-86.8482775,35.9113305],[-86.8480308,35.9112218],[-86.8478913,35.911148],[-86.8478967,35.9109481],[-86.848079,35.9109003],[-86.8481863,35.9108395],[-86.8482346,35.9106831],[-86.8483741,35.9106309],[-86.8485726,35.9106396],[-86.8487442,35.9103963],[-86.8487369,35.9102542],[-86.8487281,35.9100835],[-86.8487281,35.909901],[-86.848535,35.9098228],[-86.848476,35.9097142],[-86.8487496,35.90951],[-86.8491144,35.9094448],[-86.8496455,35.9094839],[-86.8502463,35.9094274],[-86.850595,35.9093709],[-86.8508846,35.9094926],[-86.8510724,35.9096273],[-86.8513674,35.909775],[-86.8515337,35.909901],[-86.851523,35.910027],[-86.8516678,35.9101965],[-86.851861,35.9103442],[-86.8523491,35.9105397],[-86.8529017,35.910644],[-86.8534274,35.9107092],[-86.8539531,35.910518],[-86.8545754,35.9101965],[-86.8563832,35.9098402],[-86.8567533,35.9097446],[-86.8575472,35.9100574],[-86.8577082,35.9101009],[-86.8577296,35.9099358],[-86.8584216,35.9104007],[-86.8609805,35.912925],[-86.8620212,35.9136419],[-86.8627678,35.9134106],[-86.8609736,35.9120403],[-86.8595763,35.9107139],[-86.8591233,35.9102973],[-86.8579794,35.9096693],[-86.8575111,35.9094392],[-86.8571347,35.9094967],[-86.8565666,35.9095776],[-86.8562679,35.9095408],[-86.8560051,35.9094927],[-86.8558122,35.9094446],[-86.8554923,35.9093039],[-86.8551358,35.9090959],[-86.8547163,35.9089314],[-86.8540407,35.9087692],[-86.8534649,35.9084396],[-86.8529505,35.908166],[-86.851868,35.9079111],[-86.8510235,35.9076064],[-86.8508895,35.9080037],[-86.8508419,35.9081449],[-86.8508513,35.908735],[-86.8507618,35.9088272],[-86.8504935,35.9089424],[-86.8502252,35.9089358],[-86.8499894,35.9088436],[-86.8497617,35.908758],[-86.8495503,35.9087416],[-86.8493674,35.9088864],[-86.8490787,35.9089391],[-86.8488023,35.9089095],[-86.8484526,35.9090577],[-86.8482046,35.9090083],[-86.8479688,35.9088568],[-86.8477452,35.9087613],[-86.8474742,35.9087196],[-86.8473655,35.9091181],[-86.8473119,35.9093148],[-86.8470724,35.9096121],[-86.8471993,35.9096664]]],"type":"Polygon"},"id":"3c7bca0f-2d63-34e4-939d-9db529d0ec31","properties":{"class":"wood","id":"3c7bca0f-2d63-34e4-939d-9db529d0ec31","source_tags":[["natural","wood"]],"sources":[{"dataset":"OpenStreetMap","license":"ODbL-1.0","property":"","provider":"osm","record_id":"w342607636@5","resource":"planet","update_time":"2022-09-23T04:22:48.000Z","version":"2026-09-06T00:00:00.000Z"}],"subtype":"forest","version":1},"type":"Feature"},{"geometry":{"coordinates":[[[-86.8627678,35.9134106],[-86.8630013,35.9131924],[-86.8621709,35.9125294],[-86.8619193,35.9123236],[-86.860164,35.910888],[-86.8600657,35.9108042],[-86.859764,35.910547],[-86.8594029,35.9101979],[-86.8590628,35.9099385],[-86.8587781,35.9097495],[-86.8585052,35.9096022],[-86.8582092,35.9094641],[-86.8576867,35.9092659],[-86.8571192,35.9090748],[-86.8569025,35.9090271],[-86.8564858,35.9089353],[-86.8562351,35.9088801],[-86.8561443,35.9090489],[-86.8563719,35.9092992],[-86.8562679,35.9095408],[-86.8565666,35.9095776],[-86.8571347,35.9094967],[-86.8575111,35.9094392],[-86.8579794,35.9096693],[-86.8591233,35.9102973],[-86.8595763,35.9107139],[-86.8610043,35.9120695],[-86.8618718,35.9129089],[-86.8625398,35.9132633],[-86.8627678,35.9134106]]],"type":"Polygon"},"id":"847d7b38-13f7-33b8-ac16-41dfb36a6d30","properties":{"class":"wood","id":"847d7b38-13f7-33b8-ac16-41dfb36a6d30","source_tags":[["natural","wood"]],"sources":[{"dataset":"OpenStreetMap","license":"ODbL-1.0","property":"","provider":"osm","record_id":"w342607637@4","resource":"planet","update_time":"2019-09-30T08:31:59.000Z","version":"2026-09-06T00:00:00.000Z"}],"subtype":"forest","version":1},"type":"Feature"},{"geometry":{"coordinates":[-86.8602787,35.9250636],"type":"Point"},"id":"e5542396-471c-3aae-ad2c-88144a563c81","properties":{"class":"cliff","elevation":211,"id":"e5542396-471c-3aae-ad2c-88144a563c81","names":{"primary":"Figuers Bluff"},"source_tags":[["ele","211"],["gnis:feature_id","1645360"],["natural","cliff"]],"sources":[{"dataset":"OpenStreetMap","license":"ODbL-1.0","property":"","provider":"osm","record_id":"n356892533@3","resource":"planet","update_time":"2024-05-15T14:39:59.000Z","version":"2026-09-06T00:00:00.000Z"}],"subtype":"physical","version":1,"wikidata":"Q31670301"},"type":"Feature"},{"geometry":{"coordinates":[[[-86.8752399,35.9273443],[-86.8750817,35.9269273],[-86.8750361,35.9267861],[-86.8750468,35.9265059],[-86.8750441,35.9259564],[-86.8750119,35.9254199],[-86.875197,35.9251441],[-86.8753874,35.9249595],[-86.8755966,35.9247944],[-86.8754491,35.9247597],[-86.8752345,35.9248205],[-86.8752292,35.9249226],[-86.8749878,35.9251289],[-86.8747766,35.9251544],[-86.8746659,35.9255503],[-86.8748027,35.9259304],[-86.8748134,35.9261085],[-86.8747625,35.9266471],[-86.8747491,35.9269273],[-86.8746713,35.927138],[-86.8747598,35.9273878],[-86.8752399,35.9273443]]],"type":"Polygon"},"id":"882bad05-4a34-3dbe-b8c1-9fc8ded6d6b1","properties":{"class":"wood","id":"882bad05-4a34-3dbe-b8c1-9fc8ded6d6b1","source_tags":[["natural","wood"]],"sources":[{"dataset":"OpenStreetMap","license":"ODbL-1.0","property":"","provider":"osm","record_id":"w564121092@2","resource":"planet","update_time":"2018-02-25T19:34:57.000Z","version":"2026-09-06T00:00:00.000Z"}],"subtype":"forest","version":1},"type":"Feature"},{"geometry":{"coordinates":[[[-86.8750468,35.9284346],[-86.8753633,35.9282869],[-86.8758193,35.9282435],[-86.8757629,35.9277114],[-86.8755162,35.9276484],[-86.875425,35.927505],[-86.8748483,35.9275811],[-86.8749341,35.9282804],[-86.8750468,35.9284346]]],"type":"Polygon"},"id":"0f8508ec-d13e-3b8f-999a-3e93aea00dba","properties":{"class":"wood","id":"0f8508ec-d13e-3b8f-999a-3e93aea00dba","source_tags":[["natural","wood"]],"sources":[{"dataset":"OpenStreetMap","license":"ODbL-1.0","property":"","provider":"osm","record_id":"w564121091@1","resource":"planet","update_time":"2018-02-25T19:13:10.000Z","version":"2026-09-06T00:00:00.000Z"}],"subtype":"forest","version":1},"type":"Feature"},{"geometry":{"coordinates":[[[-85.99938583654442,36.0005],[-87.00061416345558,36.0005],[-87.00061416345558,34.9995],[-85.99938583654442,34.9995],[-85.99938583654442,36.0005]]],"type":"Polygon"},"id":"233fb815-05e9-3e3b-b21a-61cd99242278","properties":{"class":"land","id":"233fb815-05e9-3e3b-b21a-61cd99242278","sources":[{"dataset":"OpenStreetMap","license":"ODbL-1.0","property":"","provider":"osm","resource":"coastlines","version":"2026-08-10"}],"subtype":"land","version":6},"type":"Feature"}],"type":"FeatureCollection"}