{"features":[{"geometry":{"coordinates":[[[-86.8597769,35.9317256],[-86.8598271,35.9316567],[-86.8595275,35.9315137],[-86.8594262,35.9316529],[-86.8595802,35.9317264],[-86.8596314,35.9316552],[-86.8597769,35.9317256]]],"type":"Polygon"},"id":"2f9a6ff3-a66f-328e-894c-a01e4790fdaf","properties":{"building_id":"e09b67bd-bee5-491f-88b4-c385103f0a50","id":"2f9a6ff3-a66f-328e-894c-a01e4790fdaf","is_underground":false,"names":{"primary":"The Factory at Franklin"},"sources":[{"dataset":"OpenStreetMap","license":"ODbL-1.0","property":"","provider":"osm","record_id":"w1436595772@1","resource":"planet","update_time":"2025-10-09T02:43:02.000Z","version":"2026-09-06T00:00:00.000Z"}],"version":1},"type":"Feature"},{"geometry":{"coordinates":[[[-86.8599655,35.9318156],[-86.8597769,35.9317256],[-86.8596314,35.9316552],[-86.8595802,35.9317264],[-86.8599143,35.9318859],[-86.8599655,35.9318156]]],"type":"Polygon"},"id":"7a593781-76d1-3fa7-b91c-cc641ca6d2c5","properties":{"building_id":"e09b67bd-bee5-491f-88b4-c385103f0a50","id":"7a593781-76d1-3fa7-b91c-cc641ca6d2c5","is_underground":false,"names":{"primary":"Hot Hattie B's Chicken"},"sources":[{"dataset":"OpenStreetMap","license":"ODbL-1.0","property":"","provider":"osm","record_id":"w1436595771@3","resource":"planet","update_time":"2026-08-09T19:22:08.000Z","version":"2026-09-06T00:00:00.000Z"}],"version":1},"type":"Feature"},{"geometry":{"coordinates":[[[-86.8802498,35.9320047],[-86.8802283,35.9319995],[-86.8802107,35.9319937],[-86.8797164,35.9332614],[-86.8797574,35.9332718],[-86.880047,35.932506],[-86.8801378,35.932285],[-86.8802176,35.9320878],[-86.8802498,35.9320047]]],"type":"Polygon"},"id":"7aabd506-368a-3fd3-9ed2-548ccce3fc3a","properties":{"building_id":"83469775-a169-4217-b26b-6f1a2107c9ac","id":"7aabd506-368a-3fd3-9ed2-548ccce3fc3a","is_underground":false,"sources":[{"dataset":"OpenStreetMap","license":"ODbL-1.0","property":"","provider":"osm","record_id":"w1418743560@1","resource":"planet","update_time":"2025-07-30T19:35:40.000Z","version":"2026-09-06T00:00:00.000Z"}],"version":1},"type":"Feature"}],"type":"FeatureCollection"}